[{"id":"1","name":"Barishal","bn_name":"\u09ac\u09b0\u09bf\u09b6\u09be\u09b2","lat":"22.701002","long":"90.353451","districts":[{"id":"34","division_id":"1","name":"Barguna","bn_name":"\u09ac\u09b0\u0997\u09c1\u09a8\u09be","lat":"22.0953","long":"90.1121","upazilas":[{"id":"1","district_id":"34","name":"Amtali","bn_name":"\u0986\u09ae\u09a4\u09b2\u09c0"},{"id":"2","district_id":"34","name":"Bamna","bn_name":"\u09ac\u09be\u09ae\u09a8\u09be"},{"id":"3","district_id":"34","name":"Barguna Sadar","bn_name":"\u09ac\u09b0\u0997\u09c1\u09a8\u09be \u09b8\u09a6\u09b0"},{"id":"4","district_id":"34","name":"Betagi","bn_name":"\u09ac\u09c7\u09a4\u09be\u0997\u09bf"},{"id":"5","district_id":"34","name":"Patharghata","bn_name":"\u09aa\u09be\u09a5\u09b0\u0998\u09be\u099f\u09be"},{"id":"6","district_id":"34","name":"Taltali","bn_name":"\u09a4\u09be\u09b2\u09a4\u09b2\u09c0"}]},{"id":"35","division_id":"1","name":"Barishal","bn_name":"\u09ac\u09b0\u09bf\u09b6\u09be\u09b2","lat":"22.7010","long":"90.3535","upazilas":[{"id":"7","district_id":"35","name":"Muladi","bn_name":"\u09ae\u09c1\u09b2\u09be\u09a6\u09bf"},{"id":"8","district_id":"35","name":"Babuganj","bn_name":"\u09ac\u09be\u09ac\u09c1\u0997\u099e\u09cd\u099c"},{"id":"9","district_id":"35","name":"Agailjhara","bn_name":"\u0986\u0997\u09be\u0987\u09b2\u099d\u09b0\u09be"},{"id":"10","district_id":"35","name":"Barisal Sadar","bn_name":"\u09ac\u09b0\u09bf\u09b6\u09be\u09b2 \u09b8\u09a6\u09b0"},{"id":"11","district_id":"35","name":"Bakerganj","bn_name":"\u09ac\u09be\u0995\u09c7\u09b0\u0997\u099e\u09cd\u099c"},{"id":"12","district_id":"35","name":"Banaripara","bn_name":"\u09ac\u09be\u09a8\u09be\u09dc\u09bf\u09aa\u09be\u09b0\u09be"},{"id":"13","district_id":"35","name":"Gaurnadi","bn_name":"\u0997\u09cc\u09b0\u09a8\u09a6\u09c0"},{"id":"14","district_id":"35","name":"Hizla","bn_name":"\u09b9\u09bf\u099c\u09b2\u09be"},{"id":"15","district_id":"35","name":"Mehendiganj","bn_name":"\u09ae\u09c7\u09b9\u09c7\u09a6\u09bf\u0997\u099e\u09cd\u099c "},{"id":"16","district_id":"35","name":"Wazirpur","bn_name":"\u0993\u09df\u09be\u099c\u09bf\u09b0\u09aa\u09c1\u09b0"}]},{"id":"36","division_id":"1","name":"Bhola","bn_name":"\u09ad\u09cb\u09b2\u09be","lat":"22.685923","long":"90.648179","upazilas":[{"id":"17","district_id":"36","name":"Bhola Sadar","bn_name":"\u09ad\u09cb\u09b2\u09be \u09b8\u09a6\u09b0"},{"id":"18","district_id":"36","name":"Burhanuddin","bn_name":"\u09ac\u09c1\u09b0\u09b9\u09be\u09a8\u0989\u09a6\u09cd\u09a6\u09bf\u09a8"},{"id":"19","district_id":"36","name":"Char Fasson","bn_name":"\u099a\u09b0 \u09ab\u09cd\u09af\u09be\u09b6\u09a8"},{"id":"20","district_id":"36","name":"Daulatkhan","bn_name":"\u09a6\u09cc\u09b2\u09a4\u0996\u09be\u09a8"},{"id":"21","district_id":"36","name":"Lalmohan","bn_name":"\u09b2\u09be\u09b2\u09ae\u09cb\u09b9\u09a8"},{"id":"22","district_id":"36","name":"Manpura","bn_name":"\u09ae\u09a8\u09aa\u09c1\u09b0\u09be"},{"id":"23","district_id":"36","name":"Tazumuddin","bn_name":"\u09a4\u09be\u099c\u09c1\u09ae\u09c1\u09a6\u09cd\u09a6\u09bf\u09a8"}]},{"id":"37","division_id":"1","name":"Jhalokati","bn_name":"\u099d\u09be\u09b2\u0995\u09be\u09a0\u09bf","lat":"22.6406","long":"90.1987","upazilas":[{"id":"24","district_id":"37","name":"Jhalokati Sadar","bn_name":"\u099d\u09be\u09b2\u0995\u09be\u09a0\u09bf \u09b8\u09a6\u09b0"},{"id":"25","district_id":"37","name":"Kathalia","bn_name":"\u0995\u09be\u0981\u09a0\u09be\u09b2\u09bf\u09df\u09be"},{"id":"26","district_id":"37","name":"Nalchity","bn_name":"\u09a8\u09be\u09b2\u099a\u09bf\u09a4\u09bf"},{"id":"27","district_id":"37","name":"Rajapur","bn_name":"\u09b0\u09be\u099c\u09be\u09aa\u09c1\u09b0"}]},{"id":"38","division_id":"1","name":"Patuakhali","bn_name":"\u09aa\u099f\u09c1\u09df\u09be\u0996\u09be\u09b2\u09c0","lat":"22.3596316","long":"90.3298712","upazilas":[{"id":"28","district_id":"38","name":"Bauphal","bn_name":"\u09ac\u09be\u0989\u09ab\u09b2"},{"id":"29","district_id":"38","name":"Dashmina","bn_name":"\u09a6\u09b6\u09ae\u09bf\u09a8\u09be"},{"id":"30","district_id":"38","name":"Galachipa","bn_name":"\u0997\u09b2\u09be\u099a\u09bf\u09aa\u09be"},{"id":"31","district_id":"38","name":"Kalapara","bn_name":"\u0995\u09be\u09b2\u09be\u09aa\u09be\u09b0\u09be"},{"id":"32","district_id":"38","name":"Mirzaganj","bn_name":"\u09ae\u09bf\u09b0\u09cd\u099c\u09be\u0997\u099e\u09cd\u099c "},{"id":"33","district_id":"38","name":"Patuakhali Sadar","bn_name":"\u09aa\u099f\u09c1\u09df\u09be\u0996\u09be\u09b2\u09c0 \u09b8\u09a6\u09b0"},{"id":"34","district_id":"38","name":"Dumki","bn_name":"\u09a1\u09c1\u09ae\u0995\u09bf"},{"id":"35","district_id":"38","name":"Rangabali","bn_name":"\u09b0\u09be\u0999\u09cd\u0997\u09be\u09ac\u09be\u09b2\u09bf"}]},{"id":"39","division_id":"1","name":"Pirojpur","bn_name":"\u09aa\u09bf\u09b0\u09cb\u099c\u09aa\u09c1\u09b0","lat":"22.5841","long":"89.9720","upazilas":[{"id":"36","district_id":"39","name":"Bhandaria","bn_name":"\u09ad\u09cd\u09af\u09be\u09a8\u09cd\u09a1\u09be\u09b0\u09bf\u09df\u09be"},{"id":"37","district_id":"39","name":"Kaukhali","bn_name":"\u0995\u09be\u0989\u0996\u09be\u09b2\u09bf"},{"id":"38","district_id":"39","name":"Mathbaria","bn_name":"\u09ae\u09be\u09a0\u09ac\u09be\u09dc\u09bf\u09df\u09be"},{"id":"39","district_id":"39","name":"Nazirpur","bn_name":"\u09a8\u09be\u099c\u09bf\u09b0\u09aa\u09c1\u09b0"},{"id":"40","district_id":"39","name":"Nesarabad","bn_name":"\u09a8\u09c7\u09b8\u09be\u09b0\u09be\u09ac\u09be\u09a6"},{"id":"41","district_id":"39","name":"Pirojpur Sadar","bn_name":"\u09aa\u09bf\u09b0\u09cb\u099c\u09aa\u09c1\u09b0 \u09b8\u09a6\u09b0"},{"id":"42","district_id":"39","name":"Zianagar","bn_name":"\u099c\u09bf\u09df\u09be\u09a8\u0997\u09b0"}]}]},{"id":"2","name":"Chattogram","bn_name":"\u099a\u099f\u09cd\u099f\u0997\u09cd\u09b0\u09be\u09ae","lat":"22.356851","long":"91.783182","districts":[{"id":"40","division_id":"2","name":"Bandarban","bn_name":"\u09ac\u09be\u09a8\u09cd\u09a6\u09b0\u09ac\u09be\u09a8","lat":"22.1953275","long":"92.2183773","upazilas":[{"id":"43","district_id":"40","name":"Bandarban Sadar","bn_name":"\u09ac\u09be\u09a8\u09cd\u09a6\u09b0\u09ac\u09a8 \u09b8\u09a6\u09b0"},{"id":"44","district_id":"40","name":"Thanchi","bn_name":"\u09a5\u09be\u09a8\u099a\u09bf"},{"id":"45","district_id":"40","name":"Lama","bn_name":"\u09b2\u09be\u09ae\u09be"},{"id":"46","district_id":"40","name":"Naikhongchhari","bn_name":"\u09a8\u09be\u0987\u0996\u0982\u099b\u09dc\u09bf "},{"id":"47","district_id":"40","name":"Ali kadam","bn_name":"\u0986\u09b2\u09c0 \u0995\u09a6\u09ae"},{"id":"48","district_id":"40","name":"Rowangchhari","bn_name":"\u09b0\u0989\u09df\u09be\u0982\u099b\u09dc\u09bf "},{"id":"49","district_id":"40","name":"Ruma","bn_name":"\u09b0\u09c1\u09ae\u09be"}]},{"id":"41","division_id":"2","name":"Brahmanbaria","bn_name":"\u09ac\u09cd\u09b0\u09be\u09b9\u09cd\u09ae\u09a3\u09ac\u09be\u09dc\u09bf\u09df\u09be","lat":"23.9570904","long":"91.1119286","upazilas":[{"id":"50","district_id":"41","name":"Brahmanbaria Sadar","bn_name":"\u09ac\u09cd\u09b0\u09be\u09b9\u09cd\u09ae\u09a3\u09ac\u09be\u09dc\u09bf\u09df\u09be \u09b8\u09a6\u09b0"},{"id":"51","district_id":"41","name":"Ashuganj","bn_name":"\u0986\u09b6\u09c1\u0997\u099e\u09cd\u099c"},{"id":"52","district_id":"41","name":"Nasirnagar","bn_name":"\u09a8\u09be\u09b8\u09bf\u09b0 \u09a8\u0997\u09b0"},{"id":"53","district_id":"41","name":"Nabinagar","bn_name":"\u09a8\u09ac\u09c0\u09a8\u0997\u09b0"},{"id":"54","district_id":"41","name":"Sarail","bn_name":"\u09b8\u09b0\u09be\u0987\u09b2"},{"id":"55","district_id":"41","name":"Shahbazpur Town","bn_name":"\u09b6\u09be\u09b9\u09ac\u09be\u099c\u09aa\u09c1\u09b0 \u099f\u09be\u0989\u09a8"},{"id":"56","district_id":"41","name":"Kasba","bn_name":"\u0995\u09b8\u09ac\u09be"},{"id":"57","district_id":"41","name":"Akhaura","bn_name":"\u0986\u0996\u09be\u0989\u09b0\u09be"},{"id":"58","district_id":"41","name":"Bancharampur","bn_name":"\u09ac\u09be\u099e\u09cd\u099b\u09be\u09b0\u09be\u09ae\u09aa\u09c1\u09b0"},{"id":"59","district_id":"41","name":"Bijoynagar","bn_name":"\u09ac\u09bf\u099c\u09df \u09a8\u0997\u09b0"}]},{"id":"42","division_id":"2","name":"Chandpur","bn_name":"\u099a\u09be\u0981\u09a6\u09aa\u09c1\u09b0","lat":"23.2332585","long":"90.6712912","upazilas":[{"id":"60","district_id":"42","name":"Chandpur Sadar","bn_name":"\u099a\u09be\u0981\u09a6\u09aa\u09c1\u09b0 \u09b8\u09a6\u09b0"},{"id":"61","district_id":"42","name":"Faridganj","bn_name":"\u09ab\u09b0\u09bf\u09a6\u0997\u099e\u09cd\u099c"},{"id":"62","district_id":"42","name":"Haimchar","bn_name":"\u09b9\u09be\u0987\u09ae\u099a\u09b0"},{"id":"63","district_id":"42","name":"Haziganj","bn_name":"\u09b9\u09be\u099c\u09c0\u0997\u099e\u09cd\u099c"},{"id":"64","district_id":"42","name":"Kachua","bn_name":"\u0995\u099a\u09c1\u09df\u09be"},{"id":"65","district_id":"42","name":"Matlab Uttar","bn_name":"\u09ae\u09a4\u09b2\u09ac \u0989\u09a4\u09cd\u09a4\u09b0"},{"id":"66","district_id":"42","name":"Matlab Dakkhin","bn_name":"\u09ae\u09a4\u09b2\u09ac \u09a6\u0995\u09cd\u09b7\u09bf\u09a3"},{"id":"67","district_id":"42","name":"Shahrasti","bn_name":"\u09b6\u09be\u09b9\u09b0\u09be\u09b8\u09cd\u09a4\u09bf"}]},{"id":"43","division_id":"2","name":"Chattogram","bn_name":"\u099a\u099f\u09cd\u099f\u0997\u09cd\u09b0\u09be\u09ae","lat":"22.335109","long":"91.834073","upazilas":[{"id":"68","district_id":"43","name":"Anwara","bn_name":"\u0986\u09a8\u09cb\u09df\u09be\u09b0\u09be"},{"id":"69","district_id":"43","name":"Banshkhali","bn_name":"\u09ac\u09be\u09b6\u0996\u09be\u09b2\u09bf"},{"id":"70","district_id":"43","name":"Boalkhali","bn_name":"\u09ac\u09cb\u09df\u09be\u09b2\u0996\u09be\u09b2\u09bf"},{"id":"71","district_id":"43","name":"Chandanaish","bn_name":"\u099a\u09a8\u09cd\u09a6\u09a8\u09be\u0987\u09b6"},{"id":"72","district_id":"43","name":"Fatikchhari","bn_name":"\u09ab\u099f\u09bf\u0995\u099b\u09dc\u09bf"},{"id":"73","district_id":"43","name":"Hathazari","bn_name":"\u09b9\u09be\u09a0\u09b9\u09be\u099c\u09be\u09b0\u09c0"},{"id":"74","district_id":"43","name":"Lohagara","bn_name":"\u09b2\u09cb\u09b9\u09be\u0997\u09be\u09b0\u09be"},{"id":"75","district_id":"43","name":"Mirsharai","bn_name":"\u09ae\u09bf\u09b0\u09b8\u09b0\u09be\u0987"},{"id":"76","district_id":"43","name":"Patiya","bn_name":"\u09aa\u099f\u09bf\u09df\u09be"},{"id":"77","district_id":"43","name":"Rangunia","bn_name":"\u09b0\u09be\u0999\u09cd\u0997\u09c1\u09a8\u09bf\u09df\u09be"},{"id":"78","district_id":"43","name":"Raozan","bn_name":"\u09b0\u09be\u0989\u099c\u09be\u09a8"},{"id":"79","district_id":"43","name":"Sandwip","bn_name":"\u09b8\u09a8\u09cd\u09a6\u09cd\u09ac\u09c0\u09aa"},{"id":"80","district_id":"43","name":"Satkania","bn_name":"\u09b8\u09be\u09a4\u0995\u09be\u09a8\u09bf\u09df\u09be"},{"id":"81","district_id":"43","name":"Sitakunda","bn_name":"\u09b8\u09c0\u09a4\u09be\u0995\u09c1\u09a3\u09cd\u09a1"}]},{"id":"44","division_id":"2","name":"Cumilla","bn_name":"\u0995\u09c1\u09ae\u09bf\u09b2\u09cd\u09b2\u09be","lat":"23.4682747","long":"91.1788135","upazilas":[{"id":"82","district_id":"44","name":"Barura","bn_name":"\u09ac\u09dc\u09c1\u09b0\u09be"},{"id":"83","district_id":"44","name":"Brahmanpara","bn_name":"\u09ac\u09cd\u09b0\u09be\u09b9\u09cd\u09ae\u09a3\u09aa\u09be\u09dc\u09be"},{"id":"84","district_id":"44","name":"Burichong","bn_name":"\u09ac\u09c1\u09dc\u09bf\u099a\u0982"},{"id":"85","district_id":"44","name":"Chandina","bn_name":"\u099a\u09be\u09a8\u09cd\u09a6\u09bf\u09a8\u09be"},{"id":"86","district_id":"44","name":"Chauddagram","bn_name":"\u099a\u09cc\u09a6\u09cd\u09a6\u0997\u09cd\u09b0\u09be\u09ae"},{"id":"87","district_id":"44","name":"Daudkandi","bn_name":"\u09a6\u09be\u0989\u09a6\u0995\u09be\u09a8\u09cd\u09a6\u09bf"},{"id":"88","district_id":"44","name":"Debidwar","bn_name":"\u09a6\u09c7\u09ac\u09c0\u09a6\u09cd\u09ac\u09be\u09b0"},{"id":"89","district_id":"44","name":"Homna","bn_name":"\u09b9\u09cb\u09ae\u09a8\u09be"},{"id":"90","district_id":"44","name":"Comilla Sadar","bn_name":"\u0995\u09c1\u09ae\u09bf\u09b2\u09cd\u09b2\u09be \u09b8\u09a6\u09b0"},{"id":"91","district_id":"44","name":"Laksam","bn_name":"\u09b2\u09be\u0995\u09b8\u09be\u09ae"},{"id":"92","district_id":"44","name":"Monohorgonj","bn_name":"\u09ae\u09a8\u09cb\u09b9\u09b0\u0997\u099e\u09cd\u099c"},{"id":"93","district_id":"44","name":"Meghna","bn_name":"\u09ae\u09c7\u0998\u09a8\u09be"},{"id":"94","district_id":"44","name":"Muradnagar","bn_name":"\u09ae\u09c1\u09b0\u09be\u09a6\u09a8\u0997\u09b0"},{"id":"95","district_id":"44","name":"Nangalkot","bn_name":"\u09a8\u09be\u0999\u09cd\u0997\u09be\u09b2\u0995\u09cb\u099f"},{"id":"96","district_id":"44","name":"Comilla Sadar South","bn_name":"\u0995\u09c1\u09ae\u09bf\u09b2\u09cd\u09b2\u09be \u09b8\u09a6\u09b0 \u09a6\u0995\u09cd\u09b7\u09bf\u09a3"},{"id":"97","district_id":"44","name":"Titas","bn_name":"\u09a4\u09bf\u09a4\u09be\u09b8"}]},{"id":"45","division_id":"2","name":"Cox's Bazar","bn_name":"\u0995\u0995\u09cd\u09b8 \u09ac\u09be\u099c\u09be\u09b0","lat":"21.4272","long":"92.0058","upazilas":[{"id":"98","district_id":"45","name":"Chakaria","bn_name":"\u099a\u0995\u09b0\u09bf\u09df\u09be"},{"id":"100","district_id":"45","name":"{{198}}''{{199}}","bn_name":"\u0995\u0995\u09cd\u09b8 \u09ac\u09be\u099c\u09be\u09b0 \u09b8\u09a6\u09b0"},{"id":"101","district_id":"45","name":"Kutubdia","bn_name":"\u0995\u09c1\u09a4\u09c1\u09ac\u09a6\u09bf\u09df\u09be"},{"id":"102","district_id":"45","name":"Maheshkhali","bn_name":"\u09ae\u09b9\u09c7\u09b6\u0996\u09be\u09b2\u09c0"},{"id":"103","district_id":"45","name":"Ramu","bn_name":"\u09b0\u09be\u09ae\u09c1"},{"id":"104","district_id":"45","name":"Teknaf","bn_name":"\u099f\u09c7\u0995\u09a8\u09be\u09ab"},{"id":"105","district_id":"45","name":"Ukhia","bn_name":"\u0989\u0996\u09bf\u09df\u09be"},{"id":"106","district_id":"45","name":"Pekua","bn_name":"\u09aa\u09c7\u0995\u09c1\u09df\u09be"},{"id":"493","district_id":"45","name":"Eidgaon","bn_name":"\u0988\u09a6\u0997\u09be\u0981\u0993"}]},{"id":"46","division_id":"2","name":"Feni","bn_name":"\u09ab\u09c7\u09a8\u09c0","lat":"23.0159","long":"91.3976","upazilas":[{"id":"107","district_id":"46","name":"Feni Sadar","bn_name":"\u09ab\u09c7\u09a8\u09c0 \u09b8\u09a6\u09b0"},{"id":"108","district_id":"46","name":"Chagalnaiya","bn_name":"\u099b\u09be\u0997\u09b2 \u09a8\u09be\u0987\u09df\u09be"},{"id":"109","district_id":"46","name":"Daganbhyan","bn_name":"\u09a6\u09be\u0997\u09be\u09a8\u09ad\u09bf\u09df\u09be"},{"id":"110","district_id":"46","name":"Parshuram","bn_name":"\u09aa\u09b0\u09b6\u09c1\u09b0\u09be\u09ae"},{"id":"111","district_id":"46","name":"Fhulgazi","bn_name":"\u09ab\u09c1\u09b2\u0997\u09be\u099c\u09bf"},{"id":"112","district_id":"46","name":"Sonagazi","bn_name":"\u09b8\u09cb\u09a8\u09be\u0997\u09be\u099c\u09bf"}]},{"id":"47","division_id":"2","name":"Khagrachari","bn_name":"\u0996\u09be\u0997\u09dc\u09be\u099b\u09dc\u09bf","lat":"23.119285","long":"91.984663","upazilas":[{"id":"113","district_id":"47","name":"Dighinala","bn_name":"\u09a6\u09bf\u0998\u09bf\u09a8\u09be\u09b2\u09be "},{"id":"114","district_id":"47","name":"Khagrachhari","bn_name":"\u0996\u09be\u0997\u09dc\u09be\u099b\u09dc\u09bf"},{"id":"115","district_id":"47","name":"Lakshmichhari","bn_name":"\u09b2\u0995\u09cd\u09b7\u09cd\u09ae\u09c0\u099b\u09dc\u09bf"},{"id":"116","district_id":"47","name":"Mahalchhari","bn_name":"\u09ae\u09b9\u09b2\u099b\u09dc\u09bf"},{"id":"117","district_id":"47","name":"Manikchhari","bn_name":"\u09ae\u09be\u09a8\u09bf\u0995\u099b\u09dc\u09bf"},{"id":"118","district_id":"47","name":"Matiranga","bn_name":"\u09ae\u09be\u099f\u09bf\u09b0\u09be\u0999\u09cd\u0997\u09be"},{"id":"119","district_id":"47","name":"Panchhari","bn_name":"\u09aa\u09be\u09a8\u099b\u09dc\u09bf"},{"id":"120","district_id":"47","name":"Ramgarh","bn_name":"\u09b0\u09be\u09ae\u0997\u09dc"}]},{"id":"48","division_id":"2","name":"Lakshmipur","bn_name":"\u09b2\u0995\u09cd\u09b7\u09cd\u09ae\u09c0\u09aa\u09c1\u09b0","lat":"22.942477","long":"90.841184","upazilas":[{"id":"121","district_id":"48","name":"Lakshmipur Sadar","bn_name":"\u09b2\u0995\u09cd\u09b7\u09cd\u09ae\u09c0\u09aa\u09c1\u09b0 \u09b8\u09a6\u09b0"},{"id":"122","district_id":"48","name":"Raipur","bn_name":"\u09b0\u09be\u09df\u09aa\u09c1\u09b0"},{"id":"123","district_id":"48","name":"Ramganj","bn_name":"\u09b0\u09be\u09ae\u0997\u099e\u09cd\u099c"},{"id":"124","district_id":"48","name":"Ramgati","bn_name":"\u09b0\u09be\u09ae\u0997\u09a4\u09bf"},{"id":"125","district_id":"48","name":"Komol Nagar","bn_name":"\u0995\u09ae\u09b2 \u09a8\u0997\u09b0"}]},{"id":"49","division_id":"2","name":"Noakhali","bn_name":"\u09a8\u09cb\u09df\u09be\u0996\u09be\u09b2\u09c0","lat":"22.869563","long":"91.099398","upazilas":[{"id":"126","district_id":"49","name":"Noakhali Sadar","bn_name":"\u09a8\u09cb\u09df\u09be\u0996\u09be\u09b2\u09c0 \u09b8\u09a6\u09b0"},{"id":"127","district_id":"49","name":"Begumganj","bn_name":"\u09ac\u09c7\u0997\u09ae\u0997\u099e\u09cd\u099c"},{"id":"128","district_id":"49","name":"Chatkhil","bn_name":"\u099a\u09be\u099f\u0996\u09bf\u09b2"},{"id":"129","district_id":"49","name":"Companyganj","bn_name":"\u0995\u09cb\u09ae\u09cd\u09aa\u09be\u09a8\u09c0\u0997\u099e\u09cd\u099c"},{"id":"130","district_id":"49","name":"Shenbag","bn_name":"\u09b6\u09c7\u09a8\u09ac\u09be\u0997"},{"id":"131","district_id":"49","name":"Hatia","bn_name":"\u09b9\u09be\u09a4\u09bf\u09df\u09be"},{"id":"132","district_id":"49","name":"Kobirhat","bn_name":"\u0995\u09ac\u09bf\u09b0\u09b9\u09be\u099f "},{"id":"133","district_id":"49","name":"Sonaimuri","bn_name":"\u09b8\u09cb\u09a8\u09be\u0987\u09ae\u09c1\u09b0\u09bf"},{"id":"134","district_id":"49","name":"Suborno Char","bn_name":"\u09b8\u09c1\u09ac\u09b0\u09cd\u09a3 \u099a\u09b0 "}]},{"id":"50","division_id":"2","name":"Rangamati","bn_name":"\u09b0\u09be\u0999\u09cd\u0997\u09be\u09ae\u09be\u099f\u09bf","lat":"22.7324","long":"92.2985","upazilas":[{"id":"135","district_id":"50","name":"Rangamati Sadar","bn_name":"\u09b0\u09be\u0999\u09cd\u0997\u09be\u09ae\u09be\u099f\u09bf \u09b8\u09a6\u09b0"},{"id":"136","district_id":"50","name":"Belaichhari","bn_name":"\u09ac\u09c7\u09b2\u09be\u0987\u099b\u09dc\u09bf"},{"id":"137","district_id":"50","name":"Bagaichhari","bn_name":"\u09ac\u09be\u0998\u09be\u0987\u099b\u09dc\u09bf"},{"id":"138","district_id":"50","name":"Barkal","bn_name":"\u09ac\u09b0\u0995\u09b2"},{"id":"139","district_id":"50","name":"Juraichhari","bn_name":"\u099c\u09c1\u09b0\u09be\u0987\u099b\u09dc\u09bf"},{"id":"140","district_id":"50","name":"Rajasthali","bn_name":"\u09b0\u09be\u099c\u09be\u09b8\u09cd\u09a5\u09b2\u09bf"},{"id":"141","district_id":"50","name":"Kaptai","bn_name":"\u0995\u09be\u09aa\u09cd\u09a4\u09be\u0987"},{"id":"142","district_id":"50","name":"Langadu","bn_name":"\u09b2\u09be\u0999\u09cd\u0997\u09be\u09a1\u09c1"},{"id":"143","district_id":"50","name":"Nannerchar","bn_name":"\u09a8\u09be\u09a8\u09cd\u09a8\u09c7\u09b0\u099a\u09b0 "},{"id":"144","district_id":"50","name":"Kaukhali","bn_name":"\u0995\u09be\u0989\u0996\u09be\u09b2\u09bf"}]}]},{"id":"3","name":"Dhaka","bn_name":"\u09a2\u09be\u0995\u09be","lat":"23.810332","long":"90.412518","districts":[{"id":"1","division_id":"3","name":"Dhaka","bn_name":"\u09a2\u09be\u0995\u09be","lat":"23.7115253","long":"90.4111451","upazilas":[{"id":"dhaka_1","district_id":"1","name":"Gulshan (Dhaka North)","bn_name":"\u0997\u09c1\u09b2\u09b6\u09be\u09a8"},{"id":"dhaka_2","district_id":"1","name":"Banani (Dhaka North)","bn_name":"\u09ac\u09a8\u09be\u09a8\u09c0"},{"id":"dhaka_3","district_id":"1","name":"Baridhara (Dhaka North)","bn_name":"\u09ac\u09be\u09b0\u09bf\u09a7\u09be\u09b0\u09be"},{"id":"dhaka_4","district_id":"1","name":"Uttara (Dhaka North)","bn_name":"\u0989\u09a4\u09cd\u09a4\u09b0\u09be"},{"id":"dhaka_5","district_id":"1","name":"Mirpur (Dhaka North)","bn_name":"\u09ae\u09bf\u09b0\u09aa\u09c1\u09b0"},{"id":"dhaka_6","district_id":"1","name":"Mohakhali (Dhaka North)","bn_name":"\u09ae\u09b9\u09be\u0996\u09be\u09b2\u09c0"},{"id":"dhaka_7","district_id":"1","name":"Niketon (Dhaka North)","bn_name":"\u09a8\u09bf\u0995\u09c7\u09a4\u09a8"},{"id":"dhaka_8","district_id":"1","name":"Khilkhet (Dhaka North)","bn_name":"\u0996\u09bf\u09b2\u0995\u09cd\u09b7\u09c7\u09a4"},{"id":"dhaka_9","district_id":"1","name":"Badda (Dhaka North)","bn_name":"\u09ac\u09be\u09a1\u09cd\u09a1\u09be"},{"id":"dhaka_10","district_id":"1","name":"Cantonment (Dhaka North)","bn_name":"\u0995\u09cd\u09af\u09be\u09a8\u09cd\u099f\u09a8\u09ae\u09c7\u09a8\u09cd\u099f"},{"id":"dhaka_11","district_id":"1","name":"Kuril (Dhaka North)","bn_name":"\u0995\u09c1\u09a1\u09bc\u09bf\u09b2"},{"id":"dhaka_12","district_id":"1","name":"Vatara (Dhaka North)","bn_name":"\u09ad\u09be\u099f\u09be\u09b0\u09be"},{"id":"dhaka_13","district_id":"1","name":"Adabor (Dhaka North)","bn_name":"\u0986\u09a6\u09be\u09ac\u09b0"},{"id":"dhaka_14","district_id":"1","name":"Shewrapara (Dhaka North)","bn_name":"\u09b6\u09c7\u0993\u09a1\u09bc\u09be\u09aa\u09be\u09a1\u09bc\u09be"},{"id":"dhaka_15","district_id":"1","name":"Agargaon (Dhaka North)","bn_name":"\u0986\u0997\u09be\u09b0\u0997\u09be\u0981\u0993"},{"id":"dhaka_16","district_id":"1","name":"Kazipara (Dhaka North)","bn_name":"\u0995\u09be\u099c\u09c0\u09aa\u09be\u09a1\u09bc\u09be"},{"id":"dhaka_17","district_id":"1","name":"Darussalam (Dhaka North)","bn_name":"\u09a6\u09be\u09b0\u09c1\u09b8\u09b8\u09be\u09b2\u09be\u09ae"},{"id":"dhaka_18","district_id":"1","name":"Kafrul (Dhaka North)","bn_name":"\u0995\u09be\u09ab\u09b0\u09c1\u09b2"},{"id":"dhaka_19","district_id":"1","name":"Uttarkhan (Dhaka North)","bn_name":"\u0989\u09a4\u09cd\u09a4\u09b0\u0996\u09be\u09a8"},{"id":"dhaka_20","district_id":"1","name":"Pallabi (Dhaka North)","bn_name":"\u09aa\u09b2\u09cd\u09b2\u09ac\u09c0"},{"id":"dhaka_21","district_id":"1","name":"Nikunja (Dhaka North)","bn_name":"\u09a8\u09bf\u0995\u09c1\u099e\u09cd\u099c"},{"id":"dhaka_22","district_id":"1","name":"Bashundhara R\/A (Dhaka North)","bn_name":"\u09ac\u09b8\u09c1\u09a8\u09cd\u09a7\u09b0\u09be \u09b0\u09c7\u099c\u09bf\u09a1\u09c7\u09a8\u09cd\u09b8\u09bf\u09df\u09be\u09b2 \u098f\u09b2\u09be\u0995\u09be"},{"id":"dhaka_23","district_id":"1","name":"Tongi (Dhaka North)","bn_name":"\u099f\u0999\u09cd\u0997\u09bf"},{"id":"dhaka_24","district_id":"1","name":"Kakrail (Dhaka North)","bn_name":"\u0995\u09be\u0995\u09b0\u09be\u0987\u09b2"},{"id":"dhaka_25","district_id":"1","name":"Shyamoli (Dhaka North)","bn_name":"\u09b6\u09cd\u09af\u09be\u09ae\u09b2\u09c0"},{"id":"dhaka_26","district_id":"1","name":"Dhamrai (Dhaka North)","bn_name":"\u09a7\u09be\u09ae\u09b0\u09be\u0987"},{"id":"dhaka_27","district_id":"1","name":"Mohakhali DOHS (Dhaka North)","bn_name":"\u09ae\u09b9\u09be\u0996\u09be\u09b2\u09c0 \u09a1\u09bf\u0993\u098f\u0987\u099a\u098f\u09b8"},{"id":"dhaka_28","district_id":"1","name":"Rampura (Dhaka North)","bn_name":"\u09b0\u09be\u09ae\u09aa\u09c1\u09b0\u09be"},{"id":"dhaka_29","district_id":"1","name":"Mirpur DOHS (Dhaka North)","bn_name":"\u09ae\u09bf\u09b0\u09aa\u09c1\u09b0 \u09a1\u09bf\u0993\u098f\u0987\u099a\u098f\u09b8"},{"id":"dhaka_30","district_id":"1","name":"Mirpur Cantonment (Dhaka North)","bn_name":"\u09ae\u09bf\u09b0\u09aa\u09c1\u09b0 \u0995\u09cd\u09af\u09be\u09a8\u09cd\u099f\u09a8\u09ae\u09c7\u09a8\u09cd\u099f"},{"id":"dhaka_31","district_id":"1","name":"Shah Ali (Dhaka North)","bn_name":"\u09b6\u09be\u09b9 \u0986\u09b2\u09c0"},{"id":"dhaka_32","district_id":"1","name":"Rayer Bazar (Dhaka North)","bn_name":"\u09b0\u09be\u09af\u09bc\u09c7\u09b0 \u09ac\u09be\u099c\u09be\u09b0"},{"id":"dhaka_33","district_id":"1","name":"Farmgate (Dhaka North)","bn_name":"\u09ab\u09be\u09b0\u09cd\u09ae\u0997\u09c7\u099f"},{"id":"dhaka_34","district_id":"1","name":"Kamalapur (Dhaka North)","bn_name":"\u0995\u09ae\u09b2\u09be\u09aa\u09c1\u09b0"},{"id":"dhaka_35","district_id":"1","name":"Elephant Road (Dhaka North)","bn_name":"\u09b9\u09be\u09a4\u09bf\u09b0\u099d\u09bf\u09b2"},{"id":"dhaka_36","district_id":"1","name":"Lalmatia (Dhaka North)","bn_name":"\u09b2\u09be\u09b2\u09ae\u09be\u099f\u09bf\u09af\u09bc\u09be"},{"id":"dhaka_37","district_id":"1","name":"Malibagh (Dhaka North)","bn_name":"\u09ae\u09be\u09b2\u09bf\u09ac\u09be\u0997"},{"id":"dhaka_38","district_id":"1","name":"Tejgaon (Dhaka North)","bn_name":"\u09a4\u09c7\u099c\u0997\u09be\u0981\u0993"},{"id":"dhaka_39","district_id":"1","name":"Sher-e-Bangla Nagar (Dhaka North)","bn_name":"\u09b6\u09c7\u09b0-\u0987-\u09ac\u09be\u0982\u09b2\u09be \u09a8\u0997\u09b0"},{"id":"dhaka_40","district_id":"1","name":"Gabtoli (Dhaka North)","bn_name":"\u0997\u09be\u09ac\u09a4\u09b2\u09c0"},{"id":"dhaka_41","district_id":"1","name":"Rupnagar (Dhaka North)","bn_name":"\u09b0\u09c2\u09aa\u09a8\u0997\u09b0"},{"id":"dhaka_42","district_id":"1","name":"Dhanmondi (Dhaka South)","bn_name":"\u09a7\u09be\u09a8\u09ae\u09a8\u09cd\u09a1\u09bf"},{"id":"dhaka_43","district_id":"1","name":"Mohammadpur (Dhaka South)","bn_name":"\u09ae\u09cb\u09b9\u09be\u09ae\u09cd\u09ae\u09a6\u09aa\u09c1\u09b0"},{"id":"dhaka_44","district_id":"1","name":"Farmgate (Dhaka South)","bn_name":"\u09ab\u09be\u09b0\u09cd\u09ae\u0997\u09c7\u099f"},{"id":"dhaka_45","district_id":"1","name":"Lalbagh (Dhaka South)","bn_name":"\u09b2\u09be\u09b2\u09ac\u09be\u0997"},{"id":"dhaka_46","district_id":"1","name":"Kotwali (Dhaka South)","bn_name":"\u0995\u09cb\u09a4\u0993\u09af\u09bc\u09be\u09b2\u09c0"},{"id":"dhaka_47","district_id":"1","name":"Shahbag (Dhaka South)","bn_name":"\u09b6\u09be\u09b9\u09ac\u09be\u0997"},{"id":"dhaka_48","district_id":"1","name":"Armanitola (Dhaka South)","bn_name":"\u0986\u09b0\u09ae\u09be\u09a8\u09bf\u099f\u09cb\u09b2\u09be"},{"id":"dhaka_49","district_id":"1","name":"Shyampur (Dhaka South)","bn_name":"\u09b6\u09cd\u09af\u09be\u09ae\u09aa\u09c1\u09b0"},{"id":"dhaka_50","district_id":"1","name":"Demra (Dhaka South)","bn_name":"\u09a1\u09c7\u09ae\u09b0\u09be"},{"id":"dhaka_51","district_id":"1","name":"Laxmibazar (Dhaka South)","bn_name":"\u09b2\u0995\u09cd\u09b7\u09cd\u09ae\u09c0\u09ac\u09be\u099c\u09be\u09b0"},{"id":"dhaka_52","district_id":"1","name":"Gendaria (Dhaka South)","bn_name":"\u0997\u09c7\u09a8\u09cd\u09a1\u09be\u09b0\u09bf\u09af\u09bc\u09be"},{"id":"dhaka_53","district_id":"1","name":"Wari (Dhaka South)","bn_name":"\u0993\u09af\u09bc\u09be\u09b0\u09c0"},{"id":"dhaka_54","district_id":"1","name":"Sutrapur (Dhaka South)","bn_name":"\u09b8\u09c1\u09a4\u09cd\u09b0\u09be\u09aa\u09c1\u09b0"},{"id":"dhaka_55","district_id":"1","name":"Kamrangirchar (Dhaka South)","bn_name":"\u0995\u09be\u09ae\u09b0\u09be\u0999\u09cd\u0997\u09c0\u09b0\u099a\u09b0"},{"id":"dhaka_56","district_id":"1","name":"Kotwali Police Line (Dhaka South)","bn_name":"\u0995\u09cb\u09a4\u0993\u09af\u09bc\u09be\u09b2\u09c0 \u09aa\u09c1\u09b2\u09bf\u09b6 \u09b2\u09be\u0987\u09a8"},{"id":"dhaka_57","district_id":"1","name":"Bangshal (Dhaka South)","bn_name":"\u09ac\u0982\u09b6\u09be\u09b2"},{"id":"dhaka_58","district_id":"1","name":"Chawkbazar (Dhaka South)","bn_name":"\u099a\u0995\u09ac\u09be\u099c\u09be\u09b0"},{"id":"dhaka_59","district_id":"1","name":"Nayabazar (Dhaka South)","bn_name":"\u09a8\u09af\u09bc\u09be\u09ac\u09be\u099c\u09be\u09b0"},{"id":"dhaka_60","district_id":"1","name":"Nababganj (Dhaka South)","bn_name":"\u09a8\u09ac\u09be\u09ac\u0997\u099e\u09cd\u099c"},{"id":"dhaka_61","district_id":"1","name":"Banglamotor (Dhaka South)","bn_name":"\u09ac\u09be\u0982\u09b2\u09be\u09ae\u099f\u09b0"},{"id":"dhaka_62","district_id":"1","name":"Fakirapool (Dhaka South)","bn_name":"\u09ab\u0995\u09bf\u09b0\u09be\u09aa\u09c1\u09b2"},{"id":"dhaka_63","district_id":"1","name":"Shantinagar (Dhaka South)","bn_name":"\u09b6\u09be\u09a8\u09cd\u09a4\u09bf\u09a8\u0997\u09b0"},{"id":"dhaka_64","district_id":"1","name":"Moghbazar (Dhaka South)","bn_name":"\u09ae\u0997\u09ac\u09be\u099c\u09be\u09b0"},{"id":"dhaka_65","district_id":"1","name":"Gulshan Model Town (Dhaka South)","bn_name":"\u0997\u09c1\u09b2\u09b6\u09be\u09a8 \u09ae\u09a1\u09c7\u09b2 \u099f\u09be\u0989\u09a8"},{"id":"dhaka_66","district_id":"1","name":"Banani (Dhaka South)","bn_name":"\u09ac\u09a8\u09be\u09a8\u09c0"},{"id":"dhaka_67","district_id":"1","name":"Baridhara (Dhaka South)","bn_name":"\u09ac\u09be\u09b0\u09bf\u09a7\u09be\u09b0\u09be"},{"id":"dhaka_68","district_id":"1","name":"Bashundhara (Dhaka South)","bn_name":"\u09ac\u09b8\u09c1\u09a8\u09cd\u09a7\u09b0\u09be"},{"id":"dhaka_69","district_id":"1","name":"Kakrail (Dhaka South)","bn_name":"\u0995\u09be\u0995\u09b0\u09be\u0987\u09b2"},{"id":"dhaka_70","district_id":"1","name":"Malibagh (Dhaka South)","bn_name":"\u09ae\u09be\u09b2\u09bf\u09ac\u09be\u0997"},{"id":"dhaka_71","district_id":"1","name":"Mouchak (Dhaka South)","bn_name":"\u09ae\u09cc\u099a\u09be\u0995"},{"id":"dhaka_72","district_id":"1","name":"Siddheshwari (Dhaka South)","bn_name":"\u09b8\u09bf\u09a6\u09cd\u09a7\u09c7\u09b6\u09cd\u09ac\u09b0\u09c0"},{"id":"dhaka_73","district_id":"1","name":"Jatrabari (Dhaka South)","bn_name":"\u09af\u09be\u09a4\u09cd\u09b0\u09be\u09ac\u09be\u09a1\u09bc\u09bf"},{"id":"dhaka_74","district_id":"1","name":"Jurain (Dhaka South)","bn_name":"\u099c\u09c1\u09b0\u09be\u0987\u09a8"},{"id":"dhaka_75","district_id":"1","name":"Dholpur (Dhaka South)","bn_name":"\u09a7\u09b2\u09aa\u09c1\u09b0"},{"id":"dhaka_76","district_id":"1","name":"Posta (Dhaka South)","bn_name":"\u09aa\u09cb\u09b8\u09cd\u099f\u09be"},{"id":"dhaka_77","district_id":"1","name":"Dhaka Cantonment (Dhaka South)","bn_name":"\u09a2\u09be\u0995\u09be \u0995\u09cd\u09af\u09be\u09a8\u09cd\u099f\u09a8\u09ae\u09c7\u09a8\u09cd\u099f"},{"id":"dhaka_78","district_id":"1","name":"Mirpur Cantonment (Dhaka South)","bn_name":"\u09ae\u09bf\u09b0\u09aa\u09c1\u09b0 \u0995\u09cd\u09af\u09be\u09a8\u09cd\u099f\u09a8\u09ae\u09c7\u09a8\u09cd\u099f"},{"id":"dhaka_79","district_id":"1","name":"Uttar Khan (Dhaka South)","bn_name":"\u0989\u09a4\u09cd\u09a4\u09b0 \u0996\u09be\u09a8"},{"id":"dhaka_80","district_id":"1","name":"Darus Salam (Dhaka South)","bn_name":"\u09a6\u09be\u09b0\u09c1\u09b8 \u09b8\u09be\u09b2\u09be\u09ae"},{"id":"dhaka_81","district_id":"1","name":"Khilkhet (Dhaka South)","bn_name":"\u0996\u09bf\u09b2\u0995\u09cd\u09b7\u09c7\u09a4"},{"id":"dhaka_82","district_id":"1","name":"Nikunja (Dhaka South)","bn_name":"\u09a8\u09bf\u0995\u09c1\u099e\u09cd\u099c"},{"id":"dhaka_83","district_id":"1","name":"Airport (Dhaka South)","bn_name":"\u098f\u09af\u09bc\u09be\u09b0\u09aa\u09cb\u09b0\u09cd\u099f"},{"id":"dhaka_84","district_id":"1","name":"Rampura Bazar (Dhaka South)","bn_name":"\u09b0\u09be\u09ae\u09aa\u09c1\u09b0\u09be \u09ac\u09be\u099c\u09be\u09b0"},{"id":"dhaka_85","district_id":"1","name":"Middle Badda (Dhaka South)","bn_name":"\u09ae\u09a7\u09cd\u09af \u09ac\u09a1\u09cd\u09a1\u09be"},{"id":"dhaka_86","district_id":"1","name":"Banasree Block-C (Dhaka South)","bn_name":"\u09ac\u09a8\u09b6\u09cd\u09b0\u09c0 \u09ac\u09cd\u09b2\u0995-\u09b8\u09bf"},{"id":"dhaka_87","district_id":"1","name":"North Badda (Dhaka South)","bn_name":"\u0989\u09a4\u09cd\u09a4\u09b0 \u09ac\u09a1\u09cd\u09a1\u09be"},{"id":"dhaka_88","district_id":"1","name":"Postogola (Dhaka South)","bn_name":"\u09aa\u09cb\u09b8\u09cd\u09a4\u0997\u09cb\u09b2\u09be"},{"id":"dhaka_89","district_id":"1","name":"Dakshinkhan (Dhaka South)","bn_name":"\u09a6\u0995\u09cd\u09b7\u09bf\u09a3\u0996\u09be\u09a8"},{"id":"dhaka_90","district_id":"1","name":"Nawabganj (Dhaka South)","bn_name":"\u09a8\u09ac\u09be\u09ac\u0997\u099e\u09cd\u099c"},{"id":"dhaka_91","district_id":"1","name":"Jhigatola (Dhaka South)","bn_name":"\u099d\u09bf\u0997\u09be\u09a4\u09b2\u09be"},{"id":"dhaka_92","district_id":"1","name":"Pallabi Extension (Dhaka South)","bn_name":"\u09aa\u09b2\u09cd\u09b2\u09ac\u09c0 \u098f\u0995\u09cd\u09b8\u099f\u09c7\u09a8\u09b6\u09a8"},{"id":"dhaka_93","district_id":"1","name":"Uttara (Dhaka South)","bn_name":"\u0989\u09a4\u09cd\u09a4\u09b0\u09be"},{"id":"dhaka_94","district_id":"1","name":"Mohakhali (Dhaka South)","bn_name":"\u09ae\u09b9\u09be\u0996\u09be\u09b2\u09c0"},{"id":"dhaka_95","district_id":"1","name":"Badda (Dhaka South)","bn_name":"\u09ac\u09a1\u09cd\u09a1\u09be"},{"id":"dhaka_96","district_id":"1","name":"Basabo (Dhaka South)","bn_name":"\u09ac\u09be\u09b8\u09be\u09ac\u09cb"},{"id":"dhaka_97","district_id":"1","name":"Merul Badda (Dhaka South)","bn_name":"\u09ae\u09c7\u09b0\u09c1\u09b2 \u09ac\u09a1\u09cd\u09a1\u09be"},{"id":"dhaka_98","district_id":"1","name":"Bashabo (Dhaka South)","bn_name":"\u09ac\u09be\u09b8\u09be\u09ac\u09cb"},{"id":"dhaka_99","district_id":"1","name":"Shantibagh (Dhaka South)","bn_name":"\u09b6\u09be\u09a8\u09cd\u09a4\u09bf\u09ac\u09be\u0997"},{"id":"dhaka_100","district_id":"1","name":"Basundhara Residential Area (Dhaka South)","bn_name":"\u09ac\u09b8\u09c1\u09a8\u09cd\u09a7\u09b0\u09be \u09b0\u09c7\u099c\u09bf\u09a1\u09c7\u09a8\u09b6\u09bf\u09af\u09bc\u09be\u09b2 \u098f\u09b2\u09be\u0995\u09be"},{"id":"dhaka_101","district_id":"1","name":"Mohammadpur Housing (Dhaka South)","bn_name":"\u09ae\u09cb\u09b9\u09be\u09ae\u09cd\u09ae\u09a6\u09aa\u09c1\u09b0 \u09b9\u09be\u0989\u099c\u09bf\u0982"},{"id":"dhaka_102","district_id":"1","name":"Green Road (Dhaka South)","bn_name":"\u0997\u09cd\u09b0\u09bf\u09a8 \u09b0\u09cb\u09a1"},{"id":"dhaka_103","district_id":"1","name":"Mohammadpur Krishi Market (Dhaka South)","bn_name":"\u09ae\u09cb\u09b9\u09be\u09ae\u09cd\u09ae\u09a6\u09aa\u09c1\u09b0 \u0995\u09c3\u09b7\u09bf \u09ae\u09be\u09b0\u09cd\u0995\u09c7\u099f"},{"id":"dhaka_104","district_id":"1","name":"Tikatuli (Dhaka South)","bn_name":"\u099f\u09bf\u0995\u09be\u099f\u09c1\u09b2\u09bf"},{"id":"dhaka_105","district_id":"1","name":"Kamalapur (Dhaka South)","bn_name":"\u0995\u09ae\u09b2\u09be\u09aa\u09c1\u09b0"},{"id":"dhaka_106","district_id":"1","name":"Basundhara R\/A (Dhaka South)","bn_name":"\u09ac\u09b8\u09c1\u09a8\u09cd\u09a7\u09b0\u09be \u0986\u09b0\/\u098f"},{"id":"dhaka_107","district_id":"1","name":"Shantibagh R\/A (Dhaka South)","bn_name":"\u09b6\u09be\u09a8\u09cd\u09a4\u09bf\u09ac\u09be\u0997 \u0986\u09b0\/\u098f"},{"id":"dhaka_108","district_id":"1","name":"Monipur (Dhaka South)","bn_name":"\u09ae\u09a8\u09bf\u09aa\u09c1\u09b0"},{"id":"dhaka_109","district_id":"1","name":"Rayer Bazar (Dhaka South)","bn_name":"\u09b0\u09be\u09af\u09bc\u09c7\u09b0\u09ac\u09be\u099c\u09be\u09b0"},{"id":"dhaka_110","district_id":"1","name":"Baily Road (Dhaka South)","bn_name":"\u09ac\u09c7\u0987\u09b2\u09bf \u09b0\u09cb\u09a1"},{"id":"dhaka_111","district_id":"1","name":"Elephant Road (Dhaka South)","bn_name":"\u09b9\u09be\u09a4\u09bf\u09b0\u09aa\u09c1\u09b2"},{"id":"dhaka_112","district_id":"1","name":"New Market (Dhaka South)","bn_name":"\u09a8\u09bf\u0989\u09ae\u09be\u09b0\u09cd\u0995\u09c7\u099f"},{"id":"dhaka_113","district_id":"1","name":"Hatirpool (Dhaka South)","bn_name":"\u09b9\u09be\u09a4\u09bf\u09b0\u09aa\u09c1\u09b2"},{"id":"dhaka_114","district_id":"1","name":"Panthapath (Dhaka South)","bn_name":"\u09aa\u09be\u09a8\u09cd\u09a5\u09aa\u09a5"},{"id":"dhaka_115","district_id":"1","name":"Zigatola (Dhaka South)","bn_name":"\u099c\u09bf\u0997\u09be\u09a4\u09cb\u09b2\u09be"},{"id":"dhaka_116","district_id":"1","name":"Badda Link Road (Dhaka South)","bn_name":"\u09ac\u09a1\u09cd\u09a1\u09be \u09b2\u09bf\u0982\u0995 \u09b0\u09cb\u09a1"},{"id":"dhaka_117","district_id":"1","name":"South Mugda (Dhaka South)","bn_name":"\u09a6\u0995\u09cd\u09b7\u09bf\u09a8 \u09ae\u09c1\u0997\u09a6\u09be"},{"id":"dhaka_118","district_id":"1","name":"Notun Bazar (Dhaka South)","bn_name":"\u09a8\u09a4\u09c1\u09a8 \u09ac\u09be\u099c\u09be\u09b0"},{"id":"dhaka_119","district_id":"1","name":"Malibagh Chowdhurypara (Dhaka South)","bn_name":"\u09ae\u09be\u09b2\u09bf\u09ac\u09be\u0997 \u099a\u09cc\u09a7\u09c1\u09b0\u09c0\u09aa\u09be\u09a1\u09bc\u09be"},{"id":"dhaka_120","district_id":"1","name":"Kadamtoli (Dhaka South)","bn_name":"\u0995\u09be\u09a6\u09ae\u09a4\u09b2\u09c0"},{"id":"dhaka_121","district_id":"1","name":"Khilgaon (Dhaka South)","bn_name":"\u0996\u09bf\u09b2\u0997\u09be\u0981\u0993"},{"id":"dhaka_122","district_id":"1","name":"Shampur (Dhaka South)","bn_name":"\u09b6\u09cd\u09af\u09be\u09ae\u09aa\u09c1\u09b0"},{"id":"dhaka_123","district_id":"1","name":"Malibagh Rail Gate (Dhaka South)","bn_name":"\u09ae\u09be\u09b2\u09bf\u09ac\u09be\u0997 \u09b0\u09c7\u09b2\u0997\u09c7\u099f"},{"id":"dhaka_124","district_id":"1","name":"Bongshal (Dhaka South)","bn_name":"\u09ac\u0982\u09b6\u09be\u09b2"},{"id":"dhaka_125","district_id":"1","name":"Motijheel (Dhaka South)","bn_name":"\u09ae\u09a4\u09bf\u099d\u09bf\u09b2"},{"id":"dhaka_126","district_id":"1","name":"Tanti Bazar (Dhaka South)","bn_name":"\u09a4\u09be\u09a8\u09cd\u09a4\u09bf \u09ac\u09be\u099c\u09be\u09b0"},{"id":"dhaka_127","district_id":"1","name":"Rupnagar (Dhaka South)","bn_name":"\u09b0\u09c2\u09aa\u09a8\u0997\u09b0"},{"id":"dhaka_128","district_id":"1","name":"Nayatola (Dhaka South)","bn_name":"\u09a8\u09af\u09bc\u09be\u099f\u09b2\u09be"},{"id":"dhaka_129","district_id":"1","name":"Khilgaon Taltola (Dhaka South)","bn_name":"\u0996\u09bf\u09b2\u0997\u09be\u0981\u0993 \u09a4\u09be\u09b2\u09a4\u09b2\u09be"},{"id":"dhaka_130","district_id":"1","name":"Bijoynagar (Dhaka South)","bn_name":"\u09ac\u09bf\u099c\u09af\u09bc\u09a8\u0997\u09b0"},{"id":"dhaka_131","district_id":"1","name":"Islampur (Dhaka South)","bn_name":"\u0987\u09b8\u09b2\u09be\u09ae\u09aa\u09c1\u09b0"},{"id":"dhaka_132","district_id":"1","name":"Kalabagan (Dhaka South)","bn_name":"\u0995\u09b2\u09be\u09ac\u09be\u0997\u09be\u09a8"},{"id":"dhaka_133","district_id":"1","name":"Agargaon (Dhaka South)","bn_name":"\u0986\u0997\u09be\u09b0\u0997\u09be\u0981\u0993"},{"id":"dhaka_134","district_id":"1","name":"Mirpur-1 (North)","bn_name":"\u09ae\u09bf\u09b0\u09aa\u09c1\u09b0-\u09e7"},{"id":"dhaka_135","district_id":"1","name":"Mirpur-2 (North)","bn_name":"\u09ae\u09bf\u09b0\u09aa\u09c1\u09b0-\u09e8"},{"id":"dhaka_136","district_id":"1","name":"Mirpur-6 (North)","bn_name":"\u09ae\u09bf\u09b0\u09aa\u09c1\u09b0-\u09ec"},{"id":"dhaka_137","district_id":"1","name":"Mirpur-7 (North)","bn_name":"\u09ae\u09bf\u09b0\u09aa\u09c1\u09b0-\u09ed"},{"id":"dhaka_138","district_id":"1","name":"Mirpur-10 (North)","bn_name":"\u09ae\u09bf\u09b0\u09aa\u09c1\u09b0-\u09e7\u09e6"},{"id":"dhaka_139","district_id":"1","name":"Mirpur-11 (North)","bn_name":"\u09ae\u09bf\u09b0\u09aa\u09c1\u09b0-\u09e7\u09e7"},{"id":"dhaka_140","district_id":"1","name":"Mirpur-12 (North)","bn_name":"\u09ae\u09bf\u09b0\u09aa\u09c1\u09b0-\u09e7\u09e8"},{"id":"dhaka_141","district_id":"1","name":"Mirpur-13 (North)","bn_name":"\u09ae\u09bf\u09b0\u09aa\u09c1\u09b0-\u09e7\u09e9"},{"id":"dhaka_142","district_id":"1","name":"Mirpur-14 (North)","bn_name":"\u09ae\u09bf\u09b0\u09aa\u09c1\u09b0-\u09e7\u09ea"}]},{"id":"2","division_id":"3","name":"Faridpur","bn_name":"\u09ab\u09b0\u09bf\u09a6\u09aa\u09c1\u09b0","lat":"23.6070822","long":"89.8429406","upazilas":[{"id":"150","district_id":"2","name":"Faridpur Sadar","bn_name":"\u09ab\u09b0\u09bf\u09a6\u09aa\u09c1\u09b0 \u09b8\u09a6\u09b0"},{"id":"151","district_id":"2","name":"Boalmari","bn_name":"\u09ac\u09cb\u09df\u09be\u09b2\u09ae\u09be\u09b0\u09c0"},{"id":"152","district_id":"2","name":"Alfadanga","bn_name":"\u0986\u09b2\u09ab\u09be\u09a1\u09be\u0999\u09cd\u0997\u09be"},{"id":"153","district_id":"2","name":"Madhukhali","bn_name":"\u09ae\u09a7\u09c1\u0996\u09be\u09b2\u09bf"},{"id":"154","district_id":"2","name":"Bhanga","bn_name":"\u09ad\u09be\u0999\u09cd\u0997\u09be"},{"id":"155","district_id":"2","name":"Nagarkanda","bn_name":"\u09a8\u0997\u09b0\u0995\u09be\u09a8\u09cd\u09a1"},{"id":"156","district_id":"2","name":"Charbhadrasan","bn_name":"\u099a\u09b0\u09ad\u09a6\u09cd\u09b0\u09be\u09b8\u09a8 "},{"id":"157","district_id":"2","name":"Sadarpur","bn_name":"\u09b8\u09a6\u09b0\u09aa\u09c1\u09b0"},{"id":"158","district_id":"2","name":"Shaltha","bn_name":"\u09b6\u09be\u09b2\u09a5\u09be"}]},{"id":"3","division_id":"3","name":"Gazipur","bn_name":"\u0997\u09be\u099c\u09c0\u09aa\u09c1\u09b0","lat":"24.0022858","long":"90.4264283","upazilas":[{"id":"159","district_id":"3","name":"Gazipur Sadar-Joydebpur","bn_name":"\u0997\u09be\u099c\u09c0\u09aa\u09c1\u09b0 \u09b8\u09a6\u09b0"},{"id":"160","district_id":"3","name":"Kaliakior","bn_name":"\u0995\u09be\u09b2\u09bf\u09df\u09be\u0995\u09c8\u09b0"},{"id":"161","district_id":"3","name":"Kapasia","bn_name":"\u0995\u09be\u09aa\u09be\u09b8\u09bf\u09df\u09be"},{"id":"162","district_id":"3","name":"Sripur","bn_name":"\u09b6\u09cd\u09b0\u09c0\u09aa\u09c1\u09b0"},{"id":"163","district_id":"3","name":"Kaliganj","bn_name":"\u0995\u09be\u09b2\u09c0\u0997\u099e\u09cd\u099c"},{"id":"164","district_id":"3","name":"Tongi","bn_name":"\u099f\u0999\u09cd\u0997\u09bf"}]},{"id":"4","division_id":"3","name":"Gopalganj","bn_name":"\u0997\u09cb\u09aa\u09be\u09b2\u0997\u099e\u09cd\u099c","lat":"23.0050857","long":"89.8266059","upazilas":[{"id":"165","district_id":"4","name":"Gopalganj Sadar","bn_name":"\u0997\u09cb\u09aa\u09be\u09b2\u0997\u099e\u09cd\u099c \u09b8\u09a6\u09b0"},{"id":"166","district_id":"4","name":"Kashiani","bn_name":"\u0995\u09be\u09b6\u09bf\u09df\u09be\u09a8\u09bf"},{"id":"167","district_id":"4","name":"Kotalipara","bn_name":"\u0995\u09cb\u099f\u09be\u09b2\u09bf\u09aa\u09be\u09dc\u09be"},{"id":"168","district_id":"4","name":"Muksudpur","bn_name":"\u09ae\u09c1\u0995\u09b8\u09c1\u09a6\u09aa\u09c1\u09b0"},{"id":"169","district_id":"4","name":"Tungipara","bn_name":"\u099f\u09c1\u0999\u09cd\u0997\u09bf\u09aa\u09be\u09dc\u09be"}]},{"id":"6","division_id":"3","name":"Kishoreganj","bn_name":"\u0995\u09bf\u09b6\u09cb\u09b0\u0997\u099e\u09cd\u099c","lat":"24.444937","long":"90.776575","upazilas":[{"id":"178","district_id":"6","name":"Astagram","bn_name":"\u0985\u09b7\u09cd\u099f\u0997\u09cd\u09b0\u09be\u09ae"},{"id":"179","district_id":"6","name":"Bajitpur","bn_name":"\u09ac\u09be\u099c\u09bf\u09a4\u09aa\u09c1\u09b0"},{"id":"180","district_id":"6","name":"Bhairab","bn_name":"\u09ad\u09c8\u09b0\u09ac"},{"id":"181","district_id":"6","name":"Hossainpur","bn_name":"\u09b9\u09cb\u09b8\u09c7\u09a8\u09aa\u09c1\u09b0 "},{"id":"182","district_id":"6","name":"Itna","bn_name":"\u0987\u099f\u09a8\u09be"},{"id":"183","district_id":"6","name":"Karimganj","bn_name":"\u0995\u09b0\u09bf\u09ae\u0997\u099e\u09cd\u099c"},{"id":"184","district_id":"6","name":"Katiadi","bn_name":"\u0995\u09a4\u09bf\u09df\u09be\u09a6\u09bf"},{"id":"185","district_id":"6","name":"Kishoreganj Sadar","bn_name":"\u0995\u09bf\u09b6\u09cb\u09b0\u0997\u099e\u09cd\u099c \u09b8\u09a6\u09b0"},{"id":"186","district_id":"6","name":"Kuliarchar","bn_name":"\u0995\u09c1\u09b2\u09bf\u09df\u09be\u09b0\u099a\u09b0"},{"id":"187","district_id":"6","name":"Mithamain","bn_name":"\u09ae\u09bf\u09a0\u09be\u09ae\u09be\u0987\u09a8"},{"id":"188","district_id":"6","name":"Nikli","bn_name":"\u09a8\u09bf\u0995\u09b2\u09bf"},{"id":"189","district_id":"6","name":"Pakundia","bn_name":"\u09aa\u09be\u0995\u09c1\u09a8\u09cd\u09a1\u09be"},{"id":"190","district_id":"6","name":"Tarail","bn_name":"\u09a4\u09be\u09dc\u09be\u0987\u09b2"}]},{"id":"7","division_id":"3","name":"Madaripur","bn_name":"\u09ae\u09be\u09a6\u09be\u09b0\u09c0\u09aa\u09c1\u09b0","lat":"23.164102","long":"90.1896805","upazilas":[{"id":"191","district_id":"7","name":"Madaripur Sadar","bn_name":"\u09ae\u09be\u09a6\u09be\u09b0\u09c0\u09aa\u09c1\u09b0 \u09b8\u09a6\u09b0"},{"id":"192","district_id":"7","name":"Kalkini","bn_name":"\u0995\u09be\u09b2\u0995\u09bf\u09a8\u09bf"},{"id":"193","district_id":"7","name":"Rajoir","bn_name":"\u09b0\u09be\u099c\u0987\u09b0"},{"id":"194","district_id":"7","name":"Shibchar","bn_name":"\u09b6\u09bf\u09ac\u099a\u09b0"},{"id":"495","district_id":"7","name":"Dasar","bn_name":"\u09a6\u09b6\u09b0"}]},{"id":"8","division_id":"3","name":"Manikganj","bn_name":"\u09ae\u09be\u09a8\u09bf\u0995\u0997\u099e\u09cd\u099c","lat":"23.8644","long":"90.0047","upazilas":[{"id":"195","district_id":"8","name":"Manikganj Sadar","bn_name":"\u09ae\u09be\u09a8\u09bf\u0995\u0997\u099e\u09cd\u099c \u09b8\u09a6\u09b0"},{"id":"196","district_id":"8","name":"Singair","bn_name":"\u09b8\u09bf\u0999\u09cd\u0997\u09be\u0987\u09b0"},{"id":"197","district_id":"8","name":"Shibalaya","bn_name":"\u09b6\u09bf\u09ac\u09be\u09b2\u09df"},{"id":"198","district_id":"8","name":"Saturia","bn_name":"\u09b8\u09be\u099f\u09c1\u09b0\u09bf\u09df\u09be"},{"id":"199","district_id":"8","name":"Harirampur","bn_name":"\u09b9\u09b0\u09bf\u09b0\u09be\u09ae\u09aa\u09c1\u09b0"},{"id":"200","district_id":"8","name":"Ghior","bn_name":"\u0998\u09bf\u0993\u09b0"},{"id":"201","district_id":"8","name":"Daulatpur","bn_name":"\u09a6\u09cc\u09b2\u09a4\u09aa\u09c1\u09b0"}]},{"id":"9","division_id":"3","name":"Munshiganj","bn_name":"\u09ae\u09c1\u09a8\u09cd\u09b8\u09bf\u0997\u099e\u09cd\u099c","lat":"23.5422","long":"90.5305","upazilas":[{"id":"202","district_id":"9","name":"Lohajang","bn_name":"\u09b2\u09cb\u09b9\u09be\u099c\u0982"},{"id":"203","district_id":"9","name":"Sreenagar","bn_name":"\u09b6\u09cd\u09b0\u09c0\u09a8\u0997\u09b0"},{"id":"204","district_id":"9","name":"Munshiganj Sadar","bn_name":"\u09ae\u09c1\u09a8\u09cd\u09b8\u09bf\u0997\u099e\u09cd\u099c \u09b8\u09a6\u09b0"},{"id":"205","district_id":"9","name":"Sirajdikhan","bn_name":"\u09b8\u09bf\u09b0\u09be\u099c\u09a6\u09bf\u0996\u09be\u09a8"},{"id":"206","district_id":"9","name":"Tongibari","bn_name":"\u099f\u0999\u09cd\u0997\u09bf\u09ac\u09be\u09dc\u09bf"},{"id":"207","district_id":"9","name":"Gazaria","bn_name":"\u0997\u099c\u09be\u09b0\u09bf\u09df\u09be"}]},{"id":"11","division_id":"3","name":"Narayanganj","bn_name":"\u09a8\u09be\u09b0\u09be\u09df\u09be\u09a3\u0997\u099e\u09cd\u099c","lat":"23.63366","long":"90.496482","upazilas":[{"id":"220","district_id":"11","name":"Araihazar","bn_name":"\u0986\u09dc\u09be\u0987\u09b9\u09be\u099c\u09be\u09b0"},{"id":"221","district_id":"11","name":"Sonargaon","bn_name":"\u09b8\u09cb\u09a8\u09be\u09b0\u0997\u09be\u0981\u0993"},{"id":"222","district_id":"11","name":"Bandar","bn_name":"\u09ac\u09be\u09a8\u09cd\u09a6\u09be\u09b0"},{"id":"223","district_id":"11","name":"Naryanganj Sadar","bn_name":"\u09a8\u09be\u09b0\u09be\u09df\u09be\u09a8\u0997\u099e\u09cd\u099c \u09b8\u09a6\u09b0"},{"id":"224","district_id":"11","name":"Rupganj","bn_name":"\u09b0\u09c2\u09aa\u0997\u099e\u09cd\u099c"},{"id":"225","district_id":"11","name":"Siddirgonj","bn_name":"\u09b8\u09bf\u09a6\u09cd\u09a7\u09bf\u09b0\u0997\u099e\u09cd\u099c"}]},{"id":"12","division_id":"3","name":"Narsingdi","bn_name":"\u09a8\u09b0\u09b8\u09bf\u0982\u09a6\u09c0","lat":"23.932233","long":"90.71541","upazilas":[{"id":"226","district_id":"12","name":"Belabo","bn_name":"\u09ac\u09c7\u09b2\u09be\u09ac\u09cb"},{"id":"227","district_id":"12","name":"Monohardi","bn_name":"\u09ae\u09a8\u09cb\u09b9\u09b0\u09a6\u09bf"},{"id":"228","district_id":"12","name":"Narsingdi Sadar","bn_name":"\u09a8\u09b0\u09b8\u09bf\u0982\u09a6\u09c0 \u09b8\u09a6\u09b0"},{"id":"229","district_id":"12","name":"Palash","bn_name":"\u09aa\u09b2\u09be\u09b6"},{"id":"230","district_id":"12","name":"Raipura, Narsingdi","bn_name":"\u09b0\u09be\u09df\u09aa\u09c1\u09b0"},{"id":"231","district_id":"12","name":"Shibpur","bn_name":"\u09b6\u09bf\u09ac\u09aa\u09c1\u09b0"}]},{"id":"14","division_id":"3","name":"Rajbari","bn_name":"\u09b0\u09be\u099c\u09ac\u09be\u09dc\u09bf","lat":"23.7574305","long":"89.6444665","upazilas":[{"id":"242","district_id":"14","name":"Baliakandi","bn_name":"\u09ac\u09be\u09b2\u09bf\u09df\u09be\u0995\u09be\u09a8\u09cd\u09a6\u09bf"},{"id":"243","district_id":"14","name":"Goalandaghat","bn_name":"\u0997\u09cb\u09df\u09be\u09b2\u09a8\u09cd\u09a6 \u0998\u09be\u099f"},{"id":"244","district_id":"14","name":"Pangsha","bn_name":"\u09aa\u09be\u0982\u09b6\u09be"},{"id":"245","district_id":"14","name":"Kalukhali","bn_name":"\u0995\u09be\u09b2\u09c1\u0996\u09be\u09b2\u09bf"},{"id":"246","district_id":"14","name":"Rajbari Sadar","bn_name":"\u09b0\u09be\u099c\u09ac\u09be\u09dc\u09bf \u09b8\u09a6\u09b0"}]},{"id":"15","division_id":"3","name":"Shariatpur","bn_name":"\u09b6\u09b0\u09c0\u09df\u09a4\u09aa\u09c1\u09b0","lat":"23.2423","long":"90.4348","upazilas":[{"id":"247","district_id":"15","name":"Shariatpur Sadar -Palong","bn_name":"\u09b6\u09b0\u09c0\u09df\u09a4\u09aa\u09c1\u09b0 \u09b8\u09a6\u09b0 "},{"id":"248","district_id":"15","name":"Damudya","bn_name":"\u09a6\u09be\u09ae\u09c1\u09a6\u09bf\u09df\u09be"},{"id":"249","district_id":"15","name":"Naria","bn_name":"\u09a8\u09dc\u09bf\u09df\u09be"},{"id":"250","district_id":"15","name":"Jajira","bn_name":"\u099c\u09be\u099c\u09bf\u09b0\u09be"},{"id":"251","district_id":"15","name":"Bhedarganj","bn_name":"\u09ad\u09c7\u09a6\u09be\u09b0\u0997\u099e\u09cd\u099c"},{"id":"252","district_id":"15","name":"Gosairhat","bn_name":"\u0997\u09cb\u09b8\u09be\u0987\u09b0 \u09b9\u09be\u099f "}]},{"id":"17","division_id":"3","name":"Tangail","bn_name":"\u099f\u09be\u0999\u09cd\u0997\u09be\u0987\u09b2","lat":"24.2513","long":"89.9167","upazilas":[{"id":"258","district_id":"17","name":"Tangail Sadar","bn_name":"\u099f\u09be\u0999\u09cd\u0997\u09be\u0987\u09b2 \u09b8\u09a6\u09b0"},{"id":"259","district_id":"17","name":"Sakhipur","bn_name":"\u09b8\u0996\u09bf\u09aa\u09c1\u09b0"},{"id":"260","district_id":"17","name":"Basail","bn_name":"\u09ac\u09b8\u09be\u0987\u09b2"},{"id":"261","district_id":"17","name":"Madhupur","bn_name":"\u09ae\u09a7\u09c1\u09aa\u09c1\u09b0"},{"id":"262","district_id":"17","name":"Ghatail","bn_name":"\u0998\u09be\u099f\u09be\u0987\u09b2"},{"id":"263","district_id":"17","name":"Kalihati","bn_name":"\u0995\u09be\u09b2\u09bf\u09b9\u09be\u09a4\u09bf"},{"id":"264","district_id":"17","name":"Nagarpur","bn_name":"\u09a8\u0997\u09b0\u09aa\u09c1\u09b0"},{"id":"265","district_id":"17","name":"Mirzapur","bn_name":"\u09ae\u09bf\u09b0\u09cd\u099c\u09be\u09aa\u09c1\u09b0"},{"id":"266","district_id":"17","name":"Gopalpur","bn_name":"\u0997\u09cb\u09aa\u09be\u09b2\u09aa\u09c1\u09b0"},{"id":"267","district_id":"17","name":"Delduar","bn_name":"\u09a6\u09c7\u09b2\u09a6\u09c1\u09df\u09be\u09b0"},{"id":"268","district_id":"17","name":"Bhuapur","bn_name":"\u09ad\u09c1\u09df\u09be\u09aa\u09c1\u09b0"},{"id":"269","district_id":"17","name":"Dhanbari","bn_name":"\u09a7\u09be\u09a8\u09ac\u09be\u09dc\u09bf"}]}]},{"id":"4","name":"Khulna","bn_name":"\u0996\u09c1\u09b2\u09a8\u09be","lat":"22.845641","long":"89.540328","districts":[{"id":"55","division_id":"4","name":"Bagerhat","bn_name":"\u09ac\u09be\u0997\u09c7\u09b0\u09b9\u09be\u099f","lat":"22.651568","long":"89.785938","upazilas":[{"id":"270","district_id":"55","name":"Bagerhat Sadar","bn_name":"\u09ac\u09be\u0997\u09c7\u09b0\u09b9\u09be\u099f \u09b8\u09a6\u09b0"},{"id":"271","district_id":"55","name":"Chitalmari","bn_name":"\u099a\u09bf\u09a4\u09b2\u09ae\u09be\u09dc\u09bf"},{"id":"272","district_id":"55","name":"Fakirhat","bn_name":"\u09ab\u0995\u09bf\u09b0\u09b9\u09be\u099f"},{"id":"273","district_id":"55","name":"Kachua","bn_name":"\u0995\u099a\u09c1\u09df\u09be"},{"id":"274","district_id":"55","name":"Mollahat","bn_name":"\u09ae\u09cb\u09b2\u09cd\u09b2\u09be\u09b9\u09be\u099f "},{"id":"275","district_id":"55","name":"Mongla","bn_name":"\u09ae\u0982\u09b2\u09be"},{"id":"276","district_id":"55","name":"Morrelganj","bn_name":"\u09ae\u09b0\u09c7\u09b2\u0997\u099e\u09cd\u099c"},{"id":"277","district_id":"55","name":"Rampal","bn_name":"\u09b0\u09be\u09ae\u09aa\u09be\u09b2"},{"id":"278","district_id":"55","name":"Sarankhola","bn_name":"\u09b8\u09cd\u09ae\u09b0\u09a3\u0996\u09cb\u09b2\u09be"}]},{"id":"56","division_id":"4","name":"Chuadanga","bn_name":"\u099a\u09c1\u09df\u09be\u09a1\u09be\u0999\u09cd\u0997\u09be","lat":"23.6401961","long":"88.841841","upazilas":[{"id":"279","district_id":"56","name":"Damurhuda","bn_name":"\u09a6\u09be\u09ae\u09c1\u09b0\u09b9\u09c1\u09a6\u09be"},{"id":"280","district_id":"56","name":"Chuadanga-S","bn_name":"\u099a\u09c1\u09df\u09be\u09a1\u09be\u0999\u09cd\u0997\u09be \u09b8\u09a6\u09b0"},{"id":"281","district_id":"56","name":"Jibannagar","bn_name":"\u099c\u09c0\u09ac\u09a8 \u09a8\u0997\u09b0 "},{"id":"282","district_id":"56","name":"Alamdanga","bn_name":"\u0986\u09b2\u09ae\u09a1\u09be\u0999\u09cd\u0997\u09be"}]},{"id":"57","division_id":"4","name":"Jashore","bn_name":"\u09af\u09b6\u09cb\u09b0","lat":"23.16643","long":"89.2081126","upazilas":[{"id":"283","district_id":"57","name":"Abhaynagar","bn_name":"\u0985\u09ad\u09df\u09a8\u0997\u09b0"},{"id":"284","district_id":"57","name":"Keshabpur","bn_name":"\u0995\u09c7\u09b6\u09ac\u09aa\u09c1\u09b0"},{"id":"285","district_id":"57","name":"Bagherpara","bn_name":"\u09ac\u09be\u0998\u09c7\u09b0 \u09aa\u09be\u09dc\u09be "},{"id":"286","district_id":"57","name":"Jessore Sadar","bn_name":"\u09af\u09b6\u09cb\u09b0 \u09b8\u09a6\u09b0"},{"id":"287","district_id":"57","name":"Chaugachha","bn_name":"\u099a\u09cc\u0997\u09be\u099b\u09be"},{"id":"288","district_id":"57","name":"Manirampur","bn_name":"\u09ae\u09a8\u09bf\u09b0\u09be\u09ae\u09aa\u09c1\u09b0 "},{"id":"289","district_id":"57","name":"Jhikargachha","bn_name":"\u099d\u09bf\u0995\u09b0\u0997\u09be\u099b\u09be"},{"id":"290","district_id":"57","name":"Sharsha","bn_name":"\u09b8\u09be\u09b0\u09b6\u09be"}]},{"id":"58","division_id":"4","name":"Jhenaidah","bn_name":"\u099d\u09bf\u09a8\u09be\u0987\u09a6\u09b9","lat":"23.5448176","long":"89.1539213","upazilas":[{"id":"291","district_id":"58","name":"Jhenaidah Sadar","bn_name":"\u099d\u09bf\u09a8\u09be\u0987\u09a6\u09b9 \u09b8\u09a6\u09b0"},{"id":"292","district_id":"58","name":"Maheshpur","bn_name":"\u09ae\u09b9\u09c7\u09b6\u09aa\u09c1\u09b0"},{"id":"293","district_id":"58","name":"Kaliganj","bn_name":"\u0995\u09be\u09b2\u09c0\u0997\u099e\u09cd\u099c"},{"id":"294","district_id":"58","name":"Kotchandpur","bn_name":"\u0995\u09cb\u099f \u099a\u09be\u0981\u09a6\u09aa\u09c1\u09b0 "},{"id":"295","district_id":"58","name":"Shailkupa","bn_name":"\u09b6\u09c8\u09b2\u0995\u09c1\u09aa\u09be"},{"id":"296","district_id":"58","name":"Harinakunda","bn_name":"\u09b9\u09be\u09dc\u09bf\u09a8\u09be\u0995\u09c1\u09a8\u09cd\u09a6\u09be"}]},{"id":"59","division_id":"4","name":"Khulna","bn_name":"\u0996\u09c1\u09b2\u09a8\u09be","lat":"22.815774","long":"89.568679","upazilas":[{"id":"297","district_id":"59","name":"Terokhada","bn_name":"\u09a4\u09c7\u09b0\u09cb\u0996\u09be\u09a6\u09be"},{"id":"298","district_id":"59","name":"Batiaghata","bn_name":"\u09ac\u09be\u099f\u09bf\u09df\u09be\u0998\u09be\u099f\u09be "},{"id":"299","district_id":"59","name":"Dacope","bn_name":"\u09a1\u09be\u0995\u09aa\u09c7"},{"id":"300","district_id":"59","name":"Dumuria","bn_name":"\u09a1\u09c1\u09ae\u09c1\u09b0\u09bf\u09df\u09be"},{"id":"301","district_id":"59","name":"Dighalia","bn_name":"\u09a6\u09bf\u0998\u09b2\u09bf\u09df\u09be"},{"id":"302","district_id":"59","name":"Koyra","bn_name":"\u0995\u09df\u09dc\u09be"},{"id":"303","district_id":"59","name":"Paikgachha","bn_name":"\u09aa\u09be\u0987\u0995\u0997\u09be\u099b\u09be"},{"id":"304","district_id":"59","name":"Phultala","bn_name":"\u09ab\u09c1\u09b2\u09a4\u09b2\u09be"},{"id":"305","district_id":"59","name":"Rupsa","bn_name":"\u09b0\u09c2\u09aa\u09b8\u09be"}]},{"id":"60","division_id":"4","name":"Kushtia","bn_name":"\u0995\u09c1\u09b7\u09cd\u099f\u09bf\u09df\u09be","lat":"23.901258","long":"89.120482","upazilas":[{"id":"306","district_id":"60","name":"Kushtia Sadar","bn_name":"\u0995\u09c1\u09b7\u09cd\u099f\u09bf\u09df\u09be \u09b8\u09a6\u09b0"},{"id":"307","district_id":"60","name":"Kumarkhali","bn_name":"\u0995\u09c1\u09ae\u09be\u09b0\u0996\u09be\u09b2\u09bf"},{"id":"308","district_id":"60","name":"Daulatpur","bn_name":"\u09a6\u09cc\u09b2\u09a4\u09aa\u09c1\u09b0"},{"id":"309","district_id":"60","name":"Mirpur","bn_name":"\u09ae\u09bf\u09b0\u09aa\u09c1\u09b0"},{"id":"310","district_id":"60","name":"Bheramara","bn_name":"\u09ad\u09c7\u09b0\u09be\u09ae\u09be\u09b0\u09be"},{"id":"311","district_id":"60","name":"Khoksa","bn_name":"\u0996\u09cb\u0995\u09b8\u09be"}]},{"id":"61","division_id":"4","name":"Magura","bn_name":"\u09ae\u09be\u0997\u09c1\u09b0\u09be","lat":"23.487337","long":"89.419956","upazilas":[{"id":"312","district_id":"61","name":"Magura Sadar","bn_name":"\u09ae\u09be\u0997\u09c1\u09b0\u09be \u09b8\u09a6\u09b0"},{"id":"313","district_id":"61","name":"Mohammadpur","bn_name":"\u09ae\u09cb\u09b9\u09be\u09ae\u09cd\u09ae\u09be\u09a6\u09aa\u09c1\u09b0"},{"id":"314","district_id":"61","name":"Shalikha","bn_name":"\u09b6\u09be\u09b2\u09bf\u0996\u09be"},{"id":"315","district_id":"61","name":"Sreepur","bn_name":"\u09b6\u09cd\u09b0\u09c0\u09aa\u09c1\u09b0"}]},{"id":"62","division_id":"4","name":"Meherpur","bn_name":"\u09ae\u09c7\u09b9\u09c7\u09b0\u09aa\u09c1\u09b0","lat":"23.762213","long":"88.631821","upazilas":[{"id":"316","district_id":"62","name":"angni","bn_name":"\u0986\u0982\u09a8\u09bf"},{"id":"317","district_id":"62","name":"Mujib Nagar","bn_name":"\u09ae\u09c1\u099c\u09bf\u09ac \u09a8\u0997\u09b0"},{"id":"318","district_id":"62","name":"Meherpur-S","bn_name":"\u09ae\u09c7\u09b9\u09c7\u09b0\u09aa\u09c1\u09b0 \u09b8\u09a6\u09b0"}]},{"id":"63","division_id":"4","name":"Narail","bn_name":"\u09a8\u09dc\u09be\u0987\u09b2","lat":"23.172534","long":"89.512672","upazilas":[{"id":"319","district_id":"63","name":"Narail-S Upazilla","bn_name":"\u09a8\u09dc\u09be\u0987\u09b2 \u09b8\u09a6\u09b0"},{"id":"320","district_id":"63","name":"Lohagara Upazilla","bn_name":"\u09b2\u09cb\u09b9\u09be\u0997\u09be\u09dc\u09be"},{"id":"321","district_id":"63","name":"Kalia Upazilla","bn_name":"\u0995\u09be\u09b2\u09bf\u09df\u09be"}]},{"id":"64","division_id":"4","name":"Satkhira","bn_name":"\u09b8\u09be\u09a4\u0995\u09cd\u09b7\u09c0\u09b0\u09be","lat":"22.7185","long":"89.0705","upazilas":[{"id":"322","district_id":"64","name":"Satkhira Sadar","bn_name":"\u09b8\u09be\u09a4\u0995\u09cd\u09b7\u09c0\u09b0\u09be \u09b8\u09a6\u09b0"},{"id":"323","district_id":"64","name":"Assasuni","bn_name":"\u0986\u09b8\u09b8\u09be\u09b6\u09c1\u09a8\u09bf "},{"id":"324","district_id":"64","name":"Debhata","bn_name":"\u09a6\u09c7\u09ad\u09be\u099f\u09be"},{"id":"325","district_id":"64","name":"Tala","bn_name":"\u09a4\u09be\u09b2\u09be"},{"id":"326","district_id":"64","name":"Kalaroa","bn_name":"\u0995\u09b2\u09b0\u09cb\u09df\u09be"},{"id":"327","district_id":"64","name":"Kaliganj","bn_name":"\u0995\u09be\u09b2\u09c0\u0997\u099e\u09cd\u099c"},{"id":"328","district_id":"64","name":"Shyamnagar","bn_name":"\u09b6\u09cd\u09af\u09be\u09ae\u09a8\u0997\u09b0"}]}]},{"id":"5","name":"Rajshahi","bn_name":"\u09b0\u09be\u099c\u09b6\u09be\u09b9\u09c0","lat":"24.363589","long":"88.624135","districts":[{"id":"18","division_id":"5","name":"Bogura","bn_name":"\u09ac\u0997\u09c1\u09dc\u09be","lat":"24.8465228","long":"89.377755","upazilas":[{"id":"329","district_id":"18","name":"Adamdighi","bn_name":"\u0986\u09a6\u09ae\u09a6\u09bf\u0998\u09c0"},{"id":"330","district_id":"18","name":"Bogra Sadar","bn_name":"\u09ac\u0997\u09c1\u09dc\u09be \u09b8\u09a6\u09b0"},{"id":"331","district_id":"18","name":"Sherpur","bn_name":"\u09b6\u09c7\u09b0\u09aa\u09c1\u09b0"},{"id":"332","district_id":"18","name":"Dhunat","bn_name":"\u09a7\u09c1\u09a8\u099f"},{"id":"333","district_id":"18","name":"Dhupchanchia","bn_name":"\u09a6\u09c1\u09aa\u099a\u09be\u099a\u09bf\u09df\u09be"},{"id":"334","district_id":"18","name":"Gabtali","bn_name":"\u0997\u09be\u09ac\u09a4\u09b2\u09bf"},{"id":"335","district_id":"18","name":"Kahaloo","bn_name":"\u0995\u09be\u09b9\u09be\u09b2\u09c1"},{"id":"336","district_id":"18","name":"Nandigram","bn_name":"\u09a8\u09a8\u09cd\u09a6\u09bf\u0997\u09cd\u09b0\u09be\u09ae"},{"id":"337","district_id":"18","name":"Sahajanpur","bn_name":"\u09b6\u09be\u09b9\u099c\u09be\u09b9\u09be\u09a8\u09aa\u09c1\u09b0"},{"id":"338","district_id":"18","name":"Sariakandi","bn_name":"\u09b8\u09be\u09b0\u09bf\u09df\u09be\u0995\u09be\u09a8\u09cd\u09a6\u09bf"},{"id":"339","district_id":"18","name":"Shibganj","bn_name":"\u09b6\u09bf\u09ac\u0997\u099e\u09cd\u099c"},{"id":"340","district_id":"18","name":"Sonatala","bn_name":"\u09b8\u09cb\u09a8\u09be\u09a4\u09b2\u09be"}]},{"id":"19","division_id":"5","name":"Joypurhat","bn_name":"\u099c\u09df\u09aa\u09c1\u09b0\u09b9\u09be\u099f","lat":"25.0968","long":"89.0227","upazilas":[{"id":"341","district_id":"19","name":"Joypurhat S","bn_name":"\u099c\u09df\u09aa\u09c1\u09b0\u09b9\u09be\u099f \u09b8\u09a6\u09b0"},{"id":"342","district_id":"19","name":"Akkelpur","bn_name":"\u0986\u0995\u09cd\u0995\u09c7\u09b2\u09aa\u09c1\u09b0"},{"id":"343","district_id":"19","name":"Kalai","bn_name":"\u0995\u09be\u09b2\u09be\u0987"},{"id":"344","district_id":"19","name":"Khetlal","bn_name":"\u0996\u09c7\u09a4\u09b2\u09be\u09b2"},{"id":"345","district_id":"19","name":"Panchbibi","bn_name":"\u09aa\u09be\u0981\u099a\u09ac\u09bf\u09ac\u09bf"}]},{"id":"20","division_id":"5","name":"Naogaon","bn_name":"\u09a8\u0993\u0997\u09be\u0981","lat":"24.7936","long":"88.9318","upazilas":[{"id":"346","district_id":"20","name":"Naogaon Sadar","bn_name":"\u09a8\u0993\u0997\u09be\u0981 \u09b8\u09a6\u09b0"},{"id":"347","district_id":"20","name":"Mohadevpur","bn_name":"\u09ae\u09b9\u09be\u09a6\u09c7\u09ac\u09aa\u09c1\u09b0"},{"id":"348","district_id":"20","name":"Manda","bn_name":"\u09ae\u09be\u09a8\u09cd\u09a6\u09be"},{"id":"349","district_id":"20","name":"Niamatpur","bn_name":"\u09a8\u09bf\u09df\u09be\u09ae\u09a4\u09aa\u09c1\u09b0"},{"id":"350","district_id":"20","name":"Atrai","bn_name":"\u0986\u09a4\u09cd\u09b0\u09be\u0987"},{"id":"351","district_id":"20","name":"Raninagar","bn_name":"\u09b0\u09be\u09a3\u09c0\u09a8\u0997\u09b0"},{"id":"352","district_id":"20","name":"Patnitala","bn_name":"\u09aa\u09a4\u09cd\u09a8\u09c0\u09a4\u09b2\u09be"},{"id":"353","district_id":"20","name":"Dhamoirhat","bn_name":"\u09a7\u09be\u09ae\u0987\u09b0\u09b9\u09be\u099f "},{"id":"354","district_id":"20","name":"Sapahar","bn_name":"\u09b8\u09be\u09aa\u09be\u09b9\u09be\u09b0"},{"id":"355","district_id":"20","name":"Porsha","bn_name":"\u09aa\u09cb\u09b0\u09b6\u09be"},{"id":"356","district_id":"20","name":"Badalgachhi","bn_name":"\u09ac\u09a6\u09b2\u0997\u09be\u099b\u09bf"}]},{"id":"21","division_id":"5","name":"Natore","bn_name":"\u09a8\u09be\u099f\u09cb\u09b0","lat":"24.420556","long":"89.000282","upazilas":[{"id":"357","district_id":"21","name":"Natore Sadar","bn_name":"\u09a8\u09be\u099f\u09cb\u09b0 \u09b8\u09a6\u09b0"},{"id":"358","district_id":"21","name":"Baraigram","bn_name":"\u09ac\u09dc\u09be\u0987\u0997\u09cd\u09b0\u09be\u09ae"},{"id":"359","district_id":"21","name":"Bagatipara","bn_name":"\u09ac\u09be\u0997\u09be\u09a4\u09bf\u09aa\u09be\u09dc\u09be"},{"id":"360","district_id":"21","name":"Lalpur","bn_name":"\u09b2\u09be\u09b2\u09aa\u09c1\u09b0"},{"id":"361","district_id":"21","name":"Natore Sadar","bn_name":"\u09a8\u09be\u099f\u09cb\u09b0 \u09b8\u09a6\u09b0"},{"id":"362","district_id":"21","name":"Baraigram","bn_name":"\u09ac\u09dc\u09be\u0987 \u0997\u09cd\u09b0\u09be\u09ae"}]},{"id":"22","division_id":"5","name":"Nawabganj","bn_name":"\u09a8\u09ac\u09be\u09ac\u0997\u099e\u09cd\u099c","lat":"24.5965034","long":"88.2775122","upazilas":[{"id":"363","district_id":"22","name":"Bholahat","bn_name":"\u09ad\u09cb\u09b2\u09be\u09b9\u09be\u099f"},{"id":"364","district_id":"22","name":"Gomastapur","bn_name":"\u0997\u09cb\u09ae\u09b8\u09cd\u09a4\u09be\u09aa\u09c1\u09b0"},{"id":"365","district_id":"22","name":"Nachole","bn_name":"\u09a8\u09be\u099a\u09cb\u09b2"},{"id":"366","district_id":"22","name":"Nawabganj Sadar","bn_name":"\u09a8\u09ac\u09be\u09ac\u0997\u099e\u09cd\u099c \u09b8\u09a6\u09b0"},{"id":"367","district_id":"22","name":"Shibganj","bn_name":"\u09b6\u09bf\u09ac\u0997\u099e\u09cd\u099c"}]},{"id":"23","division_id":"5","name":"Pabna","bn_name":"\u09aa\u09be\u09ac\u09a8\u09be","lat":"23.998524","long":"89.233645","upazilas":[{"id":"368","district_id":"23","name":"Atgharia","bn_name":"\u0986\u099f\u0998\u09b0\u09bf\u09df\u09be"},{"id":"369","district_id":"23","name":"Bera","bn_name":"\u09ac\u09c7\u09dc\u09be"},{"id":"370","district_id":"23","name":"Bhangura","bn_name":"\u09ad\u09be\u0999\u09cd\u0997\u09c1\u09b0\u09be"},{"id":"371","district_id":"23","name":"Chatmohar","bn_name":"\u099a\u09be\u099f\u09ae\u09cb\u09b9\u09b0"},{"id":"372","district_id":"23","name":"Faridpur","bn_name":"\u09ab\u09b0\u09bf\u09a6\u09aa\u09c1\u09b0"},{"id":"373","district_id":"23","name":"Ishwardi","bn_name":"\u0988\u09b6\u09cd\u09ac\u09b0\u09a6\u09c0"},{"id":"374","district_id":"23","name":"Pabna Sadar","bn_name":"\u09aa\u09be\u09ac\u09a8\u09be \u09b8\u09a6\u09b0"},{"id":"375","district_id":"23","name":"Santhia","bn_name":"\u09b8\u09be\u09a5\u09bf\u09df\u09be"},{"id":"376","district_id":"23","name":"Sujanagar","bn_name":"\u09b8\u09c1\u099c\u09be\u09a8\u0997\u09b0"}]},{"id":"24","division_id":"5","name":"Rajshahi","bn_name":"\u09b0\u09be\u099c\u09b6\u09be\u09b9\u09c0","lat":"24.3745","long":"88.6042","upazilas":[{"id":"377","district_id":"24","name":"Bagha","bn_name":"\u09ac\u09be\u0998\u09be"},{"id":"378","district_id":"24","name":"Bagmara","bn_name":"\u09ac\u09be\u0997\u09ae\u09be\u09b0\u09be"},{"id":"379","district_id":"24","name":"Charghat","bn_name":"\u099a\u09be\u09b0\u0998\u09be\u099f"},{"id":"380","district_id":"24","name":"Durgapur","bn_name":"\u09a6\u09c1\u09b0\u09cd\u0997\u09be\u09aa\u09c1\u09b0"},{"id":"381","district_id":"24","name":"Godagari","bn_name":"\u0997\u09cb\u09a6\u09be\u0997\u09be\u09b0\u09bf"},{"id":"382","district_id":"24","name":"Mohanpur","bn_name":"\u09ae\u09cb\u09b9\u09a8\u09aa\u09c1\u09b0"},{"id":"383","district_id":"24","name":"Paba","bn_name":"\u09aa\u09ac\u09be"},{"id":"384","district_id":"24","name":"Puthia","bn_name":"\u09aa\u09c1\u09a0\u09bf\u09df\u09be"},{"id":"385","district_id":"24","name":"Tanore","bn_name":"\u09a4\u09be\u09a8\u09cb\u09b0"}]},{"id":"25","division_id":"5","name":"Sirajgonj","bn_name":"\u09b8\u09bf\u09b0\u09be\u099c\u0997\u099e\u09cd\u099c","lat":"24.4533978","long":"89.7006815","upazilas":[{"id":"386","district_id":"25","name":"Sirajganj Sadar","bn_name":"\u09b8\u09bf\u09b0\u09be\u099c\u0997\u099e\u09cd\u099c \u09b8\u09a6\u09b0"},{"id":"387","district_id":"25","name":"Belkuchi","bn_name":"\u09ac\u09c7\u09b2\u0995\u09c1\u099a\u09bf"},{"id":"388","district_id":"25","name":"Chauhali","bn_name":"\u099a\u09cc\u09b9\u09be\u09b2\u09bf"},{"id":"389","district_id":"25","name":"Kamarkhanda","bn_name":"\u0995\u09be\u09ae\u09be\u09b0\u0996\u09be\u09a8\u09cd\u09a6\u09be"},{"id":"390","district_id":"25","name":"Kazipur","bn_name":"\u0995\u09be\u099c\u09c0\u09aa\u09c1\u09b0"},{"id":"391","district_id":"25","name":"Raiganj","bn_name":"\u09b0\u09be\u09df\u0997\u099e\u09cd\u099c"},{"id":"392","district_id":"25","name":"Shahjadpur","bn_name":"\u09b6\u09be\u09b9\u099c\u09be\u09a6\u09aa\u09c1\u09b0"},{"id":"393","district_id":"25","name":"Tarash","bn_name":"\u09a4\u09be\u09b0\u09be\u09b6"},{"id":"394","district_id":"25","name":"Ullahpara","bn_name":"\u0989\u09b2\u09cd\u09b2\u09be\u09aa\u09be\u09dc\u09be"}]}]},{"id":"6","name":"Rangpur","bn_name":"\u09b0\u0982\u09aa\u09c1\u09b0","lat":"25.743892","long":"89.275227","districts":[{"id":"26","division_id":"6","name":"Dinajpur","bn_name":"\u09a6\u09bf\u09a8\u09be\u099c\u09aa\u09c1\u09b0","lat":"25.6217061","long":"88.6354504","upazilas":[{"id":"395","district_id":"26","name":"Birampur","bn_name":"\u09ac\u09bf\u09b0\u09be\u09ae\u09aa\u09c1\u09b0"},{"id":"396","district_id":"26","name":"Birganj","bn_name":"\u09ac\u09c0\u09b0\u0997\u099e\u09cd\u099c"},{"id":"397","district_id":"26","name":"Biral","bn_name":"\u09ac\u09bf\u09dc\u09be\u09b2"},{"id":"398","district_id":"26","name":"Bochaganj","bn_name":"\u09ac\u09cb\u099a\u09be\u0997\u099e\u09cd\u099c"},{"id":"399","district_id":"26","name":"Chirirbandar","bn_name":"\u099a\u09bf\u09b0\u09bf\u09b0\u09ac\u09a8\u09cd\u09a6\u09b0"},{"id":"400","district_id":"26","name":"Phulbari","bn_name":"\u09ab\u09c1\u09b2\u09ac\u09be\u09dc\u09bf"},{"id":"401","district_id":"26","name":"Ghoraghat","bn_name":"\u0998\u09cb\u09dc\u09be\u0998\u09be\u099f"},{"id":"402","district_id":"26","name":"Hakimpur","bn_name":"\u09b9\u09be\u0995\u09bf\u09ae\u09aa\u09c1\u09b0"},{"id":"403","district_id":"26","name":"Kaharole","bn_name":"\u0995\u09be\u09b9\u09be\u09b0\u09cb\u09b2"},{"id":"404","district_id":"26","name":"Khansama","bn_name":"\u0996\u09be\u09a8\u09b8\u09be\u09ae\u09be"},{"id":"405","district_id":"26","name":"Dinajpur Sadar","bn_name":"\u09a6\u09bf\u09a8\u09be\u099c\u09aa\u09c1\u09b0 \u09b8\u09a6\u09b0"},{"id":"406","district_id":"26","name":"Nawabganj","bn_name":"\u09a8\u09ac\u09be\u09ac\u0997\u099e\u09cd\u099c"},{"id":"407","district_id":"26","name":"Parbatipur","bn_name":"\u09aa\u09be\u09b0\u09cd\u09ac\u09a4\u09c0\u09aa\u09c1\u09b0"}]},{"id":"27","division_id":"6","name":"Gaibandha","bn_name":"\u0997\u09be\u0987\u09ac\u09be\u09a8\u09cd\u09a7\u09be","lat":"25.328751","long":"89.528088","upazilas":[{"id":"408","district_id":"27","name":"Fulchhari","bn_name":"\u09ab\u09c1\u09b2\u099b\u09dc\u09bf"},{"id":"409","district_id":"27","name":"Gaibandha sadar","bn_name":"\u0997\u09be\u0987\u09ac\u09be\u09a8\u09cd\u09a7\u09be \u09b8\u09a6\u09b0"},{"id":"410","district_id":"27","name":"Gobindaganj","bn_name":"\u0997\u09cb\u09ac\u09bf\u09a8\u09cd\u09a6\u0997\u099e\u09cd\u099c"},{"id":"411","district_id":"27","name":"Palashbari","bn_name":"\u09aa\u09b2\u09be\u09b6\u09ac\u09be\u09dc\u09c0"},{"id":"412","district_id":"27","name":"Sadullapur","bn_name":"\u09b8\u09be\u09a6\u09c1\u09b2\u09cd\u09af\u09be\u09aa\u09c1\u09b0"},{"id":"413","district_id":"27","name":"Saghata","bn_name":"\u09b8\u09be\u0998\u09be\u099f\u09be"},{"id":"414","district_id":"27","name":"Sundarganj","bn_name":"\u09b8\u09c1\u09a8\u09cd\u09a6\u09b0\u0997\u099e\u09cd\u099c"}]},{"id":"28","division_id":"6","name":"Kurigram","bn_name":"\u0995\u09c1\u09dc\u09bf\u0997\u09cd\u09b0\u09be\u09ae","lat":"25.805445","long":"89.636174","upazilas":[{"id":"415","district_id":"28","name":"Kurigram Sadar","bn_name":"\u0995\u09c1\u09dc\u09bf\u0997\u09cd\u09b0\u09be\u09ae \u09b8\u09a6\u09b0"},{"id":"416","district_id":"28","name":"Nageshwari","bn_name":"\u09a8\u09be\u0997\u09c7\u09b6\u09cd\u09ac\u09b0\u09c0"},{"id":"417","district_id":"28","name":"Bhurungamari","bn_name":"\u09ad\u09c1\u09b0\u09c1\u0999\u09cd\u0997\u09be\u09ae\u09be\u09b0\u09bf"},{"id":"418","district_id":"28","name":"Phulbari","bn_name":"\u09ab\u09c1\u09b2\u09ac\u09be\u09dc\u09bf"},{"id":"419","district_id":"28","name":"Rajarhat","bn_name":"\u09b0\u09be\u099c\u09be\u09b0\u09b9\u09be\u099f"},{"id":"420","district_id":"28","name":"Ulipur","bn_name":"\u0989\u09b2\u09bf\u09aa\u09c1\u09b0"},{"id":"421","district_id":"28","name":"Chilmari","bn_name":"\u099a\u09bf\u09b2\u09ae\u09be\u09b0\u09bf"},{"id":"422","district_id":"28","name":"Rowmari","bn_name":"\u09b0\u0989\u09ae\u09be\u09b0\u09bf"},{"id":"423","district_id":"28","name":"Char Rajibpur","bn_name":"\u099a\u09b0 \u09b0\u09be\u099c\u09bf\u09ac\u09aa\u09c1\u09b0"}]},{"id":"29","division_id":"6","name":"Lalmonirhat","bn_name":"\u09b2\u09be\u09b2\u09ae\u09a8\u09bf\u09b0\u09b9\u09be\u099f","lat":"25.9923","long":"89.2847","upazilas":[{"id":"424","district_id":"29","name":"Lalmanirhat Sadar","bn_name":"\u09b2\u09be\u09b2\u09ae\u09a8\u09bf\u09b0\u09b9\u09be\u099f \u09b8\u09a6\u09b0"},{"id":"425","district_id":"29","name":"Aditmari","bn_name":"\u0986\u09a6\u09bf\u09a4\u09ae\u09be\u09b0\u09bf"},{"id":"426","district_id":"29","name":"Kaliganj","bn_name":"\u0995\u09be\u09b2\u09c0\u0997\u099e\u09cd\u099c"},{"id":"427","district_id":"29","name":"Hatibandha","bn_name":"\u09b9\u09be\u09a4\u09bf\u09ac\u09be\u09a8\u09cd\u09a7\u09be"},{"id":"428","district_id":"29","name":"Patgram","bn_name":"\u09aa\u09be\u099f\u0997\u09cd\u09b0\u09be\u09ae"}]},{"id":"30","division_id":"6","name":"Nilphamari","bn_name":"\u09a8\u09c0\u09b2\u09ab\u09be\u09ae\u09be\u09b0\u09c0","lat":"25.931794","long":"88.856006","upazilas":[{"id":"429","district_id":"30","name":"Nilphamari Sadar","bn_name":"\u09a8\u09c0\u09b2\u09ab\u09be\u09ae\u09be\u09b0\u09c0 \u09b8\u09a6\u09b0"},{"id":"430","district_id":"30","name":"Saidpur","bn_name":"\u09b8\u09c8\u09df\u09a6\u09aa\u09c1\u09b0"},{"id":"431","district_id":"30","name":"Jaldhaka","bn_name":"\u099c\u09b2\u09a2\u09be\u0995\u09be"},{"id":"432","district_id":"30","name":"Kishoreganj","bn_name":"\u0995\u09bf\u09b6\u09cb\u09b0\u0997\u099e\u09cd\u099c"},{"id":"433","district_id":"30","name":"Domar","bn_name":"\u09a1\u09cb\u09ae\u09be\u09b0"},{"id":"434","district_id":"30","name":"Dimla","bn_name":"\u09a1\u09bf\u09ae\u09b2\u09be"}]},{"id":"31","division_id":"6","name":"Panchagarh","bn_name":"\u09aa\u099e\u09cd\u099a\u0997\u09dc","lat":"26.3411","long":"88.5541606","upazilas":[{"id":"435","district_id":"31","name":"Panchagarh Sadar","bn_name":"\u09aa\u099e\u09cd\u099a\u0997\u09dc \u09b8\u09a6\u09b0"},{"id":"436","district_id":"31","name":"Debiganj","bn_name":"\u09a6\u09c7\u09ac\u09c0\u0997\u099e\u09cd\u099c"},{"id":"437","district_id":"31","name":"Boda","bn_name":"\u09ac\u09cb\u09a6\u09be"},{"id":"438","district_id":"31","name":"Atwari","bn_name":"\u0986\u099f\u09cb\u09df\u09be\u09b0\u09bf"},{"id":"439","district_id":"31","name":"Tetulia","bn_name":"\u09a4\u09c7\u0981\u09a4\u09c1\u09b2\u09bf\u09af\u09bc\u09be"}]},{"id":"32","division_id":"6","name":"Rangpur","bn_name":"\u09b0\u0982\u09aa\u09c1\u09b0","lat":"25.7558096","long":"89.244462","upazilas":[{"id":"440","district_id":"32","name":"Badarganj","bn_name":"\u09ac\u09a6\u09b0\u0997\u099e\u09cd\u099c"},{"id":"441","district_id":"32","name":"Mithapukur","bn_name":"\u09ae\u09bf\u09a0\u09be\u09aa\u09c1\u0995\u09c1\u09b0"},{"id":"442","district_id":"32","name":"Gangachara","bn_name":"\u0997\u0999\u09cd\u0997\u09be\u099a\u09b0\u09be"},{"id":"443","district_id":"32","name":"Kaunia","bn_name":"\u0995\u09be\u0989\u09a8\u09bf\u09df\u09be"},{"id":"444","district_id":"32","name":"Rangpur Sadar","bn_name":"\u09b0\u0982\u09aa\u09c1\u09b0 \u09b8\u09a6\u09b0"},{"id":"445","district_id":"32","name":"Pirgachha","bn_name":"\u09aa\u09c0\u09b0\u0997\u09be\u099b\u09be"},{"id":"446","district_id":"32","name":"Pirganj","bn_name":"\u09aa\u09c0\u09b0\u0997\u099e\u09cd\u099c"},{"id":"447","district_id":"32","name":"Taraganj","bn_name":"\u09a4\u09be\u09b0\u09be\u0997\u099e\u09cd\u099c"}]},{"id":"33","division_id":"6","name":"Thakurgaon","bn_name":"\u09a0\u09be\u0995\u09c1\u09b0\u0997\u09be\u0981\u0993","lat":"26.0336945","long":"88.4616834","upazilas":[{"id":"448","district_id":"33","name":"Thakurgaon Sadar","bn_name":"\u09a0\u09be\u0995\u09c1\u09b0\u0997\u09be\u0981\u0993 \u09b8\u09a6\u09b0"},{"id":"449","district_id":"33","name":"Pirganj","bn_name":"\u09aa\u09c0\u09b0\u0997\u099e\u09cd\u099c"},{"id":"450","district_id":"33","name":"Baliadangi","bn_name":"\u09ac\u09be\u09b2\u09bf\u09df\u09be\u09a1\u09be\u0999\u09cd\u0997\u09bf"},{"id":"451","district_id":"33","name":"Haripur","bn_name":"\u09b9\u09b0\u09bf\u09aa\u09c1\u09b0"},{"id":"452","district_id":"33","name":"Ranisankail","bn_name":"\u09b0\u09be\u09a3\u09c0\u09b8\u0982\u0995\u0987\u09b2"}]}]},{"id":"7","name":"Sylhet","bn_name":"\u09b8\u09bf\u09b2\u09c7\u099f","lat":"24.894929","long":"91.868706","districts":[{"id":"51","division_id":"7","name":"Habiganj","bn_name":"\u09b9\u09ac\u09bf\u0997\u099e\u09cd\u099c","lat":"24.374945","long":"91.41553","upazilas":[{"id":"453","district_id":"51","name":"Ajmiriganj","bn_name":"\u0986\u099c\u09ae\u09bf\u09b0\u09bf\u0997\u099e\u09cd\u099c"},{"id":"454","district_id":"51","name":"Baniachang","bn_name":"\u09ac\u09be\u09a8\u09bf\u09df\u09be\u099a\u0982"},{"id":"455","district_id":"51","name":"Bahubal","bn_name":"\u09ac\u09be\u09b9\u09c1\u09ac\u09b2"},{"id":"456","district_id":"51","name":"Chunarughat","bn_name":"\u099a\u09c1\u09a8\u09be\u09b0\u09c1\u0998\u09be\u099f"},{"id":"457","district_id":"51","name":"Habiganj Sadar","bn_name":"\u09b9\u09ac\u09bf\u0997\u099e\u09cd\u099c \u09b8\u09a6\u09b0"},{"id":"458","district_id":"51","name":"Lakhai","bn_name":"\u09b2\u09be\u0995\u09cd\u09b7\u09be\u0987"},{"id":"459","district_id":"51","name":"Madhabpur","bn_name":"\u09ae\u09be\u09a7\u09ac\u09aa\u09c1\u09b0"},{"id":"460","district_id":"51","name":"Nabiganj","bn_name":"\u09a8\u09ac\u09c0\u0997\u099e\u09cd\u099c"},{"id":"461","district_id":"51","name":"Shaistagonj","bn_name":"\u09b6\u09be\u09df\u09c7\u09b8\u09cd\u09a4\u09be\u0997\u099e\u09cd\u099c"}]},{"id":"52","division_id":"7","name":"Maulvibazar","bn_name":"\u09ae\u09cc\u09b2\u09ad\u09c0\u09ac\u09be\u099c\u09be\u09b0","lat":"24.482934","long":"91.777417","upazilas":[{"id":"462","district_id":"52","name":"Moulvibazar Sadar","bn_name":"\u09ae\u09cc\u09b2\u09ad\u09c0\u09ac\u09be\u099c\u09be\u09b0"},{"id":"463","district_id":"52","name":"Barlekha","bn_name":"\u09ac\u09dc\u09b2\u09c7\u0996\u09be"},{"id":"464","district_id":"52","name":"Juri","bn_name":"\u099c\u09c1\u09dc\u09bf"},{"id":"465","district_id":"52","name":"Kamalganj","bn_name":"\u0995\u09be\u09ae\u09be\u09b2\u0997\u099e\u09cd\u099c"},{"id":"466","district_id":"52","name":"Kulaura","bn_name":"\u0995\u09c1\u09b2\u09be\u0989\u09b0\u09be"},{"id":"467","district_id":"52","name":"Rajnagar","bn_name":"\u09b0\u09be\u099c\u09a8\u0997\u09b0"},{"id":"468","district_id":"52","name":"Sreemangal","bn_name":"\u09b6\u09cd\u09b0\u09c0\u09ae\u0999\u09cd\u0997\u09b2"}]},{"id":"53","division_id":"7","name":"Sunamganj","bn_name":"\u09b8\u09c1\u09a8\u09be\u09ae\u0997\u099e\u09cd\u099c","lat":"25.0658042","long":"91.3950115","upazilas":[{"id":"469","district_id":"53","name":"Bishwamvarpur","bn_name":"\u09ac\u09bf\u09b8\u09b6\u09ae\u09cd\u09ad\u09be\u09b0\u09aa\u09c1\u09b0"},{"id":"470","district_id":"53","name":"Chhatak","bn_name":"\u099b\u09be\u09a4\u0995"},{"id":"471","district_id":"53","name":"Derai","bn_name":"\u09a6\u09c7\u09dc\u09be\u0987"},{"id":"472","district_id":"53","name":"Dharampasha","bn_name":"\u09a7\u09b0\u09ae\u09aa\u09be\u09b6\u09be"},{"id":"473","district_id":"53","name":"Dowarabazar","bn_name":"\u09a6\u09cb\u09df\u09be\u09b0\u09be\u09ac\u09be\u099c\u09be\u09b0"},{"id":"474","district_id":"53","name":"Jagannathpur","bn_name":"\u099c\u0997\u09a8\u09cd\u09a8\u09be\u09a5\u09aa\u09c1\u09b0"},{"id":"475","district_id":"53","name":"Jamalganj","bn_name":"\u099c\u09be\u09ae\u09be\u09b2\u0997\u099e\u09cd\u099c"},{"id":"476","district_id":"53","name":"Sulla","bn_name":"\u09b8\u09c1\u09b2\u09cd\u09b2\u09be"},{"id":"477","district_id":"53","name":"Sunamganj Sadar","bn_name":"\u09b8\u09c1\u09a8\u09be\u09ae\u0997\u099e\u09cd\u099c \u09b8\u09a6\u09b0"},{"id":"478","district_id":"53","name":"Shanthiganj","bn_name":"\u09b6\u09be\u09a8\u09cd\u09a4\u09bf\u0997\u099e\u09cd\u099c"},{"id":"479","district_id":"53","name":"Tahirpur","bn_name":"\u09a4\u09be\u09b9\u09bf\u09b0\u09aa\u09c1\u09b0"},{"id":"494","district_id":"53","name":"Modhyanagar","bn_name":"\u09ae\u09a7\u09cd\u09af\u09a8\u0997\u09b0"}]},{"id":"54","division_id":"7","name":"Sylhet","bn_name":"\u09b8\u09bf\u09b2\u09c7\u099f","lat":"24.8897956","long":"91.8697894","upazilas":[{"id":"480","district_id":"54","name":"Sylhet Sadar","bn_name":"\u09b8\u09bf\u09b2\u09c7\u099f \u09b8\u09a6\u09b0"},{"id":"481","district_id":"54","name":"Beanibazar","bn_name":"\u09ac\u09c7\u09df\u09be\u09a8\u09bf\u09ac\u09be\u099c\u09be\u09b0"},{"id":"482","district_id":"54","name":"Bishwanath","bn_name":"\u09ac\u09bf\u09b6\u09cd\u09ac\u09a8\u09be\u09a5"},{"id":"483","district_id":"54","name":"Dakshin Surma","bn_name":"\u09a6\u0995\u09cd\u09b7\u09bf\u09a3 \u09b8\u09c1\u09b0\u09ae\u09be"},{"id":"484","district_id":"54","name":"Balaganj","bn_name":"\u09ac\u09be\u09b2\u09be\u0997\u099e\u09cd\u099c"},{"id":"485","district_id":"54","name":"Companiganj","bn_name":"\u0995\u09cb\u09ae\u09cd\u09aa\u09be\u09a8\u09bf\u0997\u099e\u09cd\u099c"},{"id":"486","district_id":"54","name":"Fenchuganj","bn_name":"\u09ab\u09c7\u099e\u09cd\u099a\u09c1\u0997\u099e\u09cd\u099c"},{"id":"487","district_id":"54","name":"Golapganj","bn_name":"\u0997\u09cb\u09b2\u09be\u09aa\u0997\u099e\u09cd\u099c"},{"id":"488","district_id":"54","name":"Gowainghat","bn_name":"\u0997\u09cb\u09df\u09be\u0987\u09a8\u0998\u09be\u099f"},{"id":"489","district_id":"54","name":"Jointapur","bn_name":"\u099c\u09c8\u09a8\u09cd\u09a4\u09be\u09aa\u09c1\u09b0"},{"id":"490","district_id":"54","name":"Kanaighat","bn_name":"\u0995\u09be\u09a8\u09be\u0987\u0998\u09be\u099f"},{"id":"491","district_id":"54","name":"Zakiganj","bn_name":"\u099c\u09be\u0995\u09bf\u0997\u099e\u09cd\u099c"},{"id":"492","district_id":"54","name":"Nobigonj","bn_name":"\u09a8\u09ac\u09c0\u0997\u099e\u09cd\u099c"}]}]},{"id":"8","name":"Mymensingh","bn_name":"\u09ae\u09df\u09ae\u09a8\u09b8\u09bf\u0982\u09b9","lat":"24.747149","long":"90.420273","districts":[{"id":"5","division_id":"8","name":"Jamalpur","bn_name":"\u099c\u09be\u09ae\u09be\u09b2\u09aa\u09c1\u09b0","lat":"24.937533","long":"89.937775","upazilas":[{"id":"170","district_id":"5","name":"Dewanganj","bn_name":"\u09a6\u09c7\u0993\u09df\u09be\u09a8\u0997\u099e\u09cd\u099c"},{"id":"171","district_id":"5","name":"Baksiganj","bn_name":"\u09ac\u0995\u09b8\u09bf\u0997\u099e\u09cd\u099c"},{"id":"172","district_id":"5","name":"Islampur","bn_name":"\u0987\u09b8\u09b2\u09be\u09ae\u09aa\u09c1\u09b0"},{"id":"173","district_id":"5","name":"Jamalpur Sadar","bn_name":"\u099c\u09be\u09ae\u09be\u09b2\u09aa\u09c1\u09b0 \u09b8\u09a6\u09b0"},{"id":"174","district_id":"5","name":"Madarganj","bn_name":"\u09ae\u09be\u09a6\u09be\u09b0\u0997\u099e\u09cd\u099c"},{"id":"175","district_id":"5","name":"Melandaha","bn_name":"\u09ae\u09c7\u09b2\u09be\u09a8\u09a6\u09be\u09b9\u09be"},{"id":"176","district_id":"5","name":"Sarishabari","bn_name":"\u09b8\u09b0\u09bf\u09b7\u09be\u09ac\u09be\u09dc\u09bf "},{"id":"177","district_id":"5","name":"Narundi Police I.C","bn_name":"\u09a8\u09be\u09b0\u09c1\u09a8\u09cd\u09a6\u09bf"}]},{"id":"10","division_id":"8","name":"Mymensingh","bn_name":"\u09ae\u09df\u09ae\u09a8\u09b8\u09bf\u0982\u09b9","lat":"24.7471","long":"90.4203","upazilas":[{"id":"208","district_id":"10","name":"Bhaluka","bn_name":"\u09ad\u09be\u09b2\u09c1\u0995\u09be"},{"id":"209","district_id":"10","name":"Trishal","bn_name":"\u09a4\u09cd\u09b0\u09bf\u09b6\u09be\u09b2"},{"id":"210","district_id":"10","name":"Haluaghat","bn_name":"\u09b9\u09be\u09b2\u09c1\u09df\u09be\u0998\u09be\u099f"},{"id":"211","district_id":"10","name":"Muktagachha","bn_name":"\u09ae\u09c1\u0995\u09cd\u09a4\u09be\u0997\u09be\u099b\u09be"},{"id":"212","district_id":"10","name":"Dhobaura","bn_name":"\u09a7\u09ac\u09be\u09b0\u09c1\u09df\u09be"},{"id":"213","district_id":"10","name":"Fulbaria","bn_name":"\u09ab\u09c1\u09b2\u09ac\u09be\u09dc\u09bf\u09df\u09be"},{"id":"214","district_id":"10","name":"Gaffargaon","bn_name":"\u0997\u09ab\u09b0\u0997\u09be\u0981\u0993"},{"id":"215","district_id":"10","name":"Gauripur","bn_name":"\u0997\u09cc\u09b0\u09bf\u09aa\u09c1\u09b0"},{"id":"216","district_id":"10","name":"Ishwarganj","bn_name":"\u0988\u09b6\u09cd\u09ac\u09b0\u0997\u099e\u09cd\u099c"},{"id":"217","district_id":"10","name":"Mymensingh Sadar","bn_name":"\u09ae\u09df\u09ae\u09a8\u09b8\u09bf\u0982 \u09b8\u09a6\u09b0"},{"id":"218","district_id":"10","name":"Nandail","bn_name":"\u09a8\u09a8\u09cd\u09a6\u09be\u0987\u09b2"},{"id":"219","district_id":"10","name":"Phulpur","bn_name":"\u09ab\u09c1\u09b2\u09aa\u09c1\u09b0"}]},{"id":"13","division_id":"8","name":"Netrokona","bn_name":"\u09a8\u09c7\u09a4\u09cd\u09b0\u0995\u09cb\u09a3\u09be","lat":"24.870955","long":"90.727887","upazilas":[{"id":"232","district_id":"13","name":"Kendua Upazilla","bn_name":"\u0995\u09c7\u09a8\u09cd\u09a6\u09c1\u09df\u09be"},{"id":"233","district_id":"13","name":"Atpara Upazilla","bn_name":"\u0986\u099f\u09aa\u09be\u09dc\u09be"},{"id":"234","district_id":"13","name":"Barhatta Upazilla","bn_name":"\u09ac\u09b0\u09b9\u09be\u099f\u09cd\u099f\u09be"},{"id":"235","district_id":"13","name":"Durgapur Upazilla","bn_name":"\u09a6\u09c1\u09b0\u09cd\u0997\u09be\u09aa\u09c1\u09b0"},{"id":"236","district_id":"13","name":"Kalmakanda Upazilla","bn_name":"\u0995\u09b2\u09ae\u09be\u0995\u09be\u09a8\u09cd\u09a6\u09be"},{"id":"237","district_id":"13","name":"Madan Upazilla","bn_name":"\u09ae\u09a6\u09a8"},{"id":"238","district_id":"13","name":"Mohanganj Upazilla","bn_name":"\u09ae\u09cb\u09b9\u09a8\u0997\u099e\u09cd\u099c"},{"id":"239","district_id":"13","name":"Netrakona-S Upazilla","bn_name":"\u09a8\u09c7\u09a4\u09cd\u09b0\u0995\u09cb\u09a8\u09be \u09b8\u09a6\u09b0"},{"id":"240","district_id":"13","name":"Purbadhala Upazilla","bn_name":"\u09aa\u09c2\u09b0\u09cd\u09ac\u09a7\u09b2\u09be"},{"id":"241","district_id":"13","name":"Khaliajuri Upazilla","bn_name":"\u0996\u09be\u09b2\u09bf\u09df\u09be\u099c\u09c1\u09b0\u09bf"}]},{"id":"16","division_id":"8","name":"Sherpur","bn_name":"\u09b6\u09c7\u09b0\u09aa\u09c1\u09b0","lat":"25.0204933","long":"90.0152966","upazilas":[{"id":"253","district_id":"16","name":"Jhenaigati","bn_name":"\u099d\u09bf\u09a8\u09be\u0987\u0997\u09be\u09a4\u09bf"},{"id":"254","district_id":"16","name":"Nakla","bn_name":"\u09a8\u09be\u0995\u09b2\u09be"},{"id":"255","district_id":"16","name":"Nalitabari","bn_name":"\u09a8\u09be\u09b2\u09bf\u09a4\u09be\u09ac\u09be\u09dc\u09bf"},{"id":"256","district_id":"16","name":"Sherpur Sadar","bn_name":"\u09b6\u09c7\u09b0\u09aa\u09c1\u09b0 \u09b8\u09a6\u09b0"},{"id":"257","district_id":"16","name":"Sreebardi","bn_name":"\u09b6\u09cd\u09b0\u09c0\u09ac\u09b0\u09a6\u09bf"}]}]}]